{
  "type": "FeatureCollection",
  "features": [
    {
      "type": "Feature",
      "properties": {
        "aoi_id": "san_lorenzo_box_caves",
        "name": "Box Count High Density Caves",
        "source": "GPS Ground Truthing Notes 2025 - RD.pdf",
        "penguin_count": 32
      },
      "geometry": {
        "type": "Polygon",
        "coordinates": [
          [
            [-63.867123, -42.085258],
            [-63.866958, -42.085273],
            [-63.866972, -42.085392],
            [-63.867161, -42.085381],
            [-63.867123, -42.085258]
          ]
        ]
      }
    }
  ]
}
