{
  "type": "FeatureCollection",
  "crs": {
    "type": "name",
    "properties": {
      "name": "EPSG:32720"
    }
  },
  "features": [
    {
      "type": "Feature",
      "properties": {
        "name": "San Lorenzo Road",
        "site": "san_lorenzo",
        "aoi_id": "san_lorenzo_road",
        "penguin_count": 359,
        "area_m2": 10806.94,
        "area_ha": 1.0807,
        "waypoint_count": 34,
        "hull_vertices": 11,
        "source": "GPS waypoints from field team (Nov 08, 2025)",
        "notes": "Convex hull of perimeter waypoints",
        "source_crs": "EPSG:4326",
        "target_crs": "EPSG:32720"
      },
      "geometry": {
        "type": "Polygon",
        "coordinates": [
          [
            [
              428384.7320778263,
              5340297.07130705
            ],
            [
              428350.93352100695,
              5340278.289164303
            ],
            [
              428332.43504400493,
              5340225.80073892
            ],
            [
              428317.4418635049,
              5340170.91211929
            ],
            [
              428350.76379651064,
              5340139.37429191
            ],
            [
              428373.9578985126,
              5340152.714350056
            ],
            [
              428395.9427552367,
              5340178.366089036
            ],
            [
              428415.97508093796,
              5340202.10503789
            ],
            [
              428428.5631681442,
              5340265.7587012425
            ],
            [
              428396.2552422192,
              5340294.514076692
            ],
            [
              428388.7911374078,
              5340296.437317899
            ],
            [
              428384.7320778263,
              5340297.07130705
            ]
          ]
        ]
      }
    }
  ]
}