{
  "type": "FeatureCollection",
  "crs": {
    "type": "name",
    "properties": {
      "name": "EPSG:5345"
    }
  },
  "features": [
    {
      "type": "Feature",
      "properties": {
        "name": "San Lorenzo Road",
        "site": "san_lorenzo",
        "aoi_id": "san_lorenzo_road",
        "penguin_count": 359,
        "area_m2": 10806.94,
        "area_ha": 1.0807,
        "waypoint_count": 34,
        "hull_vertices": 11,
        "source": "GPS waypoints from field team (Nov 08, 2025)",
        "notes": "Convex hull of perimeter waypoints",
        "source_crs": "EPSG:4326",
        "target_crs": "EPSG:5345"
      },
      "geometry": {
        "type": "Polygon",
        "coordinates": [
          [
            [
              3676577.551111057,
              5338557.050176519
            ],
            [
              3676543.0894250935,
              5338539.453051762
            ],
            [
              3676522.745671368,
              5338487.608824467
            ],
            [
              3676505.823269572,
              5338433.241061605
            ],
            [
              3676538.041059158,
              5338400.529698337
            ],
            [
              3676561.7060751496,
              5338413.056569214
            ],
            [
              3676584.5941055445,
              5338437.9388761725
            ],
            [
              3676605.46222411,
              5338460.976772398
            ],
            [
              3676620.287103682,
              5338524.194995549
            ],
            [
              3676588.9856691766,
              5338554.087997545
            ],
            [
              3676581.5883285785,
              5338556.273571195
            ],
            [
              3676577.551111057,
              5338557.050176519
            ]
          ]
        ]
      }
    }
  ]
}