{
  "type": "FeatureCollection",
  "features": [
    {
      "type": "Feature",
      "properties": {
        "name": "San Lorenzo Road",
        "site": "san_lorenzo",
        "aoi_id": "san_lorenzo_road",
        "penguin_count": 359,
        "area_m2": 10806.94,
        "area_ha": 1.0807,
        "waypoint_count": 34,
        "hull_vertices": 11,
        "source": "GPS waypoints from field team (Nov 08, 2025)",
        "notes": "Convex hull of perimeter waypoints"
      },
      "geometry": {
        "type": "Polygon",
        "coordinates": [
          [
            [
              -63.8659000396729,
              -42.0861389636993
            ],
            [
              -63.8663109540939,
              -42.0863050222397
            ],
            [
              -63.8665410280228,
              -42.0867760181427
            ],
            [
              -63.8667290210724,
              -42.087268948555
            ],
            [
              -63.8663300275803,
              -42.0875560045242
            ],
            [
              -63.8660479784012,
              -42.0874379873276
            ],
            [
              -63.865779042244,
              -42.0872089862824
            ],
            [
              -63.8655339479446,
              -42.0869970321655
            ],
            [
              -63.8653739690781,
              -42.086424946785
            ],
            [
              -63.8657610416412,
              -42.0861630439758
            ],
            [
              -63.8658510446548,
              -42.0861450433731
            ],
            [
              -63.8659000396729,
              -42.0861389636993
            ]
          ]
        ]
      }
    }
  ]
}