{
  "type": "FeatureCollection",
  "features": [
    {
      "type": "Feature",
      "properties": {
        "aoi_id": "san_lorenzo_box_bushes",
        "name": "Box Count High Density Bushes",
        "source": "GPS Ground Truthing Notes 2025 - RD.pdf",
        "penguin_count": 55,
        "status": "no_coordinates",
        "notes": "No GPS coordinates provided in PDF. Previous coordinates were misattributed from Caves box. Awaiting client input. Area ~3.8 ha from PDF measurement."
      },
      "geometry": null
    }
  ]
}