{
  "type": "FeatureCollection",
  "features": [
    {
      "type": "Feature",
      "properties": {
        "name": "Caleta Tiny Island",
        "site": "caleta",
        "dataset_type": "lidar",
        "tile_count": 2,
        "point_count": 8429873,
        "source_crs_epsg": 32720,
        "tiles": [
          "cloud0.las",
          "cloud1.las"
        ],
        "geometry_type": "outline",
        "cell_res_m": 2.0,
        "simplify_tol_m": 5.0
      },
      "geometry": {
        "type": "MultiPolygon",
        "coordinates": [
          [
            [
              [
                -63.61445476137042,
                -42.375912965628
              ],
              [
                -63.61446699494235,
                -42.37592190608861
              ],
              [
                -63.614454936958154,
                -42.37593097674102
              ],
              [
                -63.61444270338615,
                -42.37592203627913
              ],
              [
                -63.61445476137042,
                -42.375912965628
              ]
            ]
          ],
          [
            [
              [
                -63.61399287092837,
                -42.375879416088985
              ],
              [
                -63.61401768885813,
                -42.375933319337534
              ],
              [
                -63.61398081288342,
                -42.37588848669199
              ],
              [
                -63.61399287092837,
                -42.375879416088985
              ]
            ]
          ],
          [
            [
              [
                -63.61372601471631,
                -42.375916869026724
              ],
              [
                -63.61373824818654,
                -42.37592580956576
              ],
              [
                -63.61372619009584,
                -42.375934880142204
              ],
              [
                -63.61371395662552,
                -42.375925939601885
              ],
              [
                -63.61372601471631,
                -42.375916869026724
              ]
            ]
          ],
          [
            [
              [
                -63.614527460419474,
                -42.37589456392053
              ],
              [
                -63.61453969399802,
                -42.375903504373376
              ],
              [
                -63.61452763602787,
                -42.37591257503339
              ],
              [
                -63.61451540244925,
                -42.37590363457927
              ],
              [
                -63.614527460419474,
                -42.37589456392053
              ]
            ]
          ],
          [
            [
              [
                -63.61477020018682,
                -42.3758752504927
              ],
              [
                -63.6147824337957,
                -42.37588419091947
              ],
              [
                -63.61477037586446,
                -42.37589326160478
              ],
              [
                -63.61475814225548,
                -42.37588432117674
              ],
              [
                -63.61477020018682,
                -42.3758752504927
              ]
            ]
          ],
          [
            [
              [
                -63.61396840393795,
                -42.375861535064125
              ],
              [
                -63.613980637431425,
                -42.37587047557723
              ],
              [
                -63.613968579386395,
                -42.37587954617895
              ],
              [
                -63.61395634589283,
                -42.37587060566459
              ],
              [
                -63.61396840393795,
                -42.375861535064125
              ]
            ]
          ],
          [
            [
              [
                -63.614381184445485,
                -42.37584131172264
              ],
              [
                -63.61439341799303,
                -42.37585025219137
              ],
              [
                -63.61438136001175,
                -42.375859322836135
              ],
              [
                -63.61436912646412,
                -42.375850382366124
              ],
              [
                -63.614381184445485,
                -42.37584131172264
              ]
            ]
          ],
          [
            [
              [
                -63.614631705900976,
                -42.37412882353049
              ],
              [
                -63.6146460467297,
                -42.37435389738909
              ],
              [
                -63.61473045025871,
                -42.374290402652505
              ],
              [
                -63.61489018615077,
                -42.37447867267427
              ],
              [
                -63.614672094085385,
                -42.37453387832892
              ],
              [
                -63.61502510470253,
                -42.374613039426656
              ],
              [
                -63.61494105248281,
                -42.374712556607975
              ],
              [
                -63.61500221954399,
                -42.374757258652814
              ],
              [
                -63.615268190998215,
                -42.374629747202576
              ],
              [
                -63.615415695868684,
                -42.37480907608773
              ],
              [
                -63.61552474209037,
                -42.37478147260509
              ],
              [
                -63.61538356743586,
                -42.375250543930264
              ],
              [
                -63.614997015590866,
                -42.37546876279734
              ],
              [
                -63.61504630136496,
                -42.37554054662787
              ],
              [
                -63.61496119357618,
                -42.37553199714222
              ],
              [
                -63.61484114212391,
                -42.375676737463905
              ],
              [
                -63.61450246646989,
                -42.375822649671555
              ],
              [
                -63.61440547597085,
                -42.37584118154535
              ],
              [
                -63.6142831406523,
                -42.37575177681036
              ],
              [
                -63.61421114376342,
                -42.37584222281959
              ],
              [
                -63.613992695472994,
                -42.37586140497425
              ],
              [
                -63.613894827623,
                -42.37578988084204
              ],
              [
                -63.613774071651854,
                -42.375862575597964
              ],
              [
                -63.61357781065476,
                -42.375665493521154
              ],
              [
                -63.61333594763303,
                -42.37577486000922
              ],
              [
                -63.613078171334685,
                -42.37549705189532
              ],
              [
                -63.61302783676636,
                -42.37531720048602
              ],
              [
                -63.613232648334716,
                -42.37514499062959
              ],
              [
                -63.613559440736616,
                -42.37502616383872
              ],
              [
                -63.61354562956875,
                -42.37485512320511
              ],
              [
                -63.613667260668855,
                -42.3748724842835
              ],
              [
                -63.613739257250835,
                -42.37478203860266
              ],
              [
                -63.61381248140501,
                -42.374817670708666
              ],
              [
                -63.61381177981671,
                -42.374745626233484
              ],
              [
                -63.613981992998674,
                -42.37476272686607
              ],
              [
                -63.61406604680688,
                -42.37466321037853
              ],
              [
                -63.61393077931899,
                -42.374492820247674
              ],
              [
                -63.61356799211608,
                -42.37465687089066
              ],
              [
                -63.61348253510553,
                -42.37461229805651
              ],
              [
                -63.61461964828069,
                -42.37413789420069
              ],
              [
                -63.614631705900976,
                -42.37412882353049
              ]
            ]
          ],
          [
            [
              [
                -63.61486683921731,
                -42.37582069608702
              ],
              [
                -63.6148790728291,
                -42.375829636503546
              ],
              [
                -63.61486701492222,
                -42.375838707198945
              ],
              [
                -63.61485478131034,
                -42.37582976678115
              ],
              [
                -63.61486683921731,
                -42.37582069608702
              ]
            ]
          ],
          [
            [
              [
                -63.61452675798751,
                -42.37582251946861
              ],
              [
                -63.614538991551846,
                -42.37583145992173
              ],
              [
                -63.61452693359526,
                -42.37584053058168
              ],
              [
                -63.61451470003084,
                -42.375831590127284
              ],
              [
                -63.61452675798751,
                -42.37582251946861
              ]
            ]
          ],
          [
            [
              [
                -63.61340934801058,
                -42.375828503477564
              ],
              [
                -63.61342158141898,
                -42.37583744405093
              ],
              [
                -63.613409523299076,
                -42.37584651459439
              ],
              [
                -63.613397289890585,
                -42.37583757401975
              ],
              [
                -63.61340934801058,
                -42.375828503477564
              ]
            ]
          ],
          [
            [
              [
                -63.613384705922954,
                -42.3757926112098
              ],
              [
                -63.61336094023499,
                -42.37584677452183
              ],
              [
                -63.613372647806194,
                -42.37580168174943
              ],
              [
                -63.613384705922954,
                -42.3757926112098
              ]
            ]
          ],
          [
            [
              [
                -63.6151324638516,
                -42.37565716272062
              ],
              [
                -63.61519433516318,
                -42.37577390909361
              ],
              [
                -63.615061171334446,
                -42.37581965370181
              ],
              [
                -63.615120406014206,
                -42.37566623344251
              ],
              [
                -63.6151324638516,
                -42.37565716272062
              ]
            ]
          ],
          [
            [
              [
                -63.61498812105227,
                -42.375802033523286
              ],
              [
                -63.615000354677456,
                -42.375810973926804
              ],
              [
                -63.61498829679172,
                -42.37582004463486
              ],
              [
                -63.614976063166445,
                -42.37581110423007
              ],
              [
                -63.61498812105227,
                -42.375802033523286
              ]
            ]
          ],
          [
            [
              [
                -63.61496330234805,
                -42.375748130488624
              ],
              [
                -63.6149755359592,
                -42.37575707089496
              ],
              [
                -63.61496347808009,
                -42.37576614160045
              ],
              [
                -63.614951244468855,
                -42.37575720119284
              ],
              [
                -63.61496330234805,
                -42.375748130488624
              ]
            ]
          ],
          [
            [
              [
                -63.61506011677518,
                -42.37571158703298
              ],
              [
                -63.61507235039279,
                -42.375720527429
              ],
              [
                -63.61506029253466,
                -42.375729598144595
              ],
              [
                -63.61504805891696,
                -42.37572065774729
              ],
              [
                -63.61506011677518,
                -42.37571158703298
              ]
            ]
          ],
          [
            [
              [
                -63.61505976525672,
                -42.375675564809576
              ],
              [
                -63.615071998867215,
                -42.37568450520574
              ],
              [
                -63.61505994101587,
                -42.375693575921304
              ],
              [
                -63.615047707405274,
                -42.37568463552387
              ],
              [
                -63.61505976525672,
                -42.375675564809576
              ]
            ]
          ],
          [
            [
              [
                -63.61316433013676,
                -42.375613669492
              ],
              [
                -63.613176563468656,
                -42.375622610092336
              ],
              [
                -63.61316450535391,
                -42.375631680610326
              ],
              [
                -63.613152272021935,
                -42.375622740008716
              ],
              [
                -63.61316433013676,
                -42.375613669492
              ]
            ]
          ],
          [
            [
              [
                -63.615083177887044,
                -42.37558537892982
              ],
              [
                -63.615095411483196,
                -42.37559431932372
              ],
              [
                -63.61508335365234,
                -42.37560339004175
              ],
              [
                -63.615071120056115,
                -42.37559444964659
              ],
              [
                -63.615083177887044,
                -42.37558537892982
              ]
            ]
          ],
          [
            [
              [
                -63.615058534947146,
                -42.37554948702586
              ],
              [
                -63.615070768532796,
                -42.37555842742251
              ],
              [
                -63.61505871070517,
                -42.37556749813799
              ],
              [
                -63.615046477119435,
                -42.37555855774008
              ],
              [
                -63.615058534947146,
                -42.37554948702586
              ]
            ]
          ],
          [
            [
              [
                -63.6152269925602,
                -42.3753864746706
              ],
              [
                -63.61523922613763,
                -42.37539541504956
              ],
              [
                -63.615227168365365,
                -42.37540448578266
              ],
              [
                -63.615214934787865,
                -42.3753955454024
              ],
              [
                -63.6152269925602,
                -42.3753864746706
              ]
            ]
          ],
          [
            [
              [
                -63.6133051716122,
                -42.37510857857862
              ],
              [
                -63.613317404865015,
                -42.375117519165215
              ],
              [
                -63.6133053468665,
                -42.37512658969806
              ],
              [
                -63.613293113613594,
                -42.375117649110194
              ],
              [
                -63.6133051716122,
                -42.37510857857862
              ]
            ]
          ],
          [
            [
              [
                -63.61323229786759,
                -42.37510896839028
              ],
              [
                -63.61324453111025,
                -42.37511790898472
              ],
              [
                -63.61323247310108,
                -42.37512697950996
              ],
              [
                -63.613220239858336,
                -42.375118038914266
              ],
              [
                -63.61323229786759,
                -42.37510896839028
              ]
            ]
          ],
          [
            [
              [
                -63.613280705116956,
                -42.37509069740141
              ],
              [
                -63.61329293836284,
                -42.37509963799069
              ],
              [
                -63.61328088036416,
                -42.37510870852098
              ],
              [
                -63.61326864711818,
                -42.375099767930436
              ],
              [
                -63.613280705116956,
                -42.37509069740141
              ]
            ]
          ],
          [
            [
              [
                -63.61344916614645,
                -42.37492768762366
              ],
              [
                -63.61351015705753,
                -42.37495437934903
              ],
              [
                -63.613437108203044,
                -42.374936758170314
              ],
              [
                -63.61344916614645,
                -42.37492768762366
              ]
            ]
          ],
          [
            [
              [
                -63.613302893320856,
                -42.37487443402065
              ],
              [
                -63.61330359433068,
                -42.37494647850106
              ],
              [
                -63.61329083536632,
                -42.37488350455206
              ],
              [
                -63.613302893320856,
                -42.37487443402065
              ]
            ]
          ],
          [
            [
              [
                -63.61337559152047,
                -42.37485603304586
              ],
              [
                -63.61338782473376,
                -42.37486497362558
              ],
              [
                -63.61337576679335,
                -42.374874044165864
              ],
              [
                -63.61336353357997,
                -42.37486510358486
              ],
              [
                -63.61337559152047,
                -42.37485603304586
              ]
            ]
          ],
          [
            [
              [
                -63.61352116310512,
                -42.374837242078236
              ],
              [
                -63.61353339633519,
                -42.374846182642344
              ],
              [
                -63.61352133841947,
                -42.3748552531978
              ],
              [
                -63.61350910518931,
                -42.374846312632414
              ],
              [
                -63.61352116310512,
                -42.374837242078236
              ]
            ]
          ],
          [
            [
              [
                -63.61502598341772,
                -42.37470309500207
              ],
              [
                -63.615038216833106,
                -42.3747120354046
              ],
              [
                -63.61502615916124,
                -42.37472110611697
              ],
              [
                -63.61501392574577,
                -42.374712165713156
              ],
              [
                -63.61502598341772,
                -42.37470309500207
              ]
            ]
          ],
          [
            [
              [
                -63.61366568246921,
                -42.37471038421023
              ],
              [
                -63.613677915694765,
                -42.37471932475915
              ],
              [
                -63.61366585782408,
                -42.374728395329704
              ],
              [
                -63.61365362459844,
                -42.37471945477953
              ],
              [
                -63.61366568246921,
                -42.37471038421023
              ]
            ]
          ],
          [
            [
              [
                -63.61354422700286,
                -42.3747110342476
              ],
              [
                -63.613556460211484,
                -42.37471997480958
              ],
              [
                -63.613544402323036,
                -42.37472904536748
              ],
              [
                -63.613532169114336,
                -42.37472010480423
              ],
              [
                -63.61354422700286,
                -42.3747110342476
              ]
            ]
          ],
          [
            [
              [
                -63.61383536930892,
                -42.37467345170378
              ],
              [
                -63.613847602551104,
                -42.37468239223454
              ],
              [
                -63.613835544712046,
                -42.3746914628228
              ],
              [
                -63.61382331146977,
                -42.374682522290776
              ],
              [
                -63.61383536930892,
                -42.37467345170378
              ]
            ]
          ],
          [
            [
              [
                -63.61398076488414,
                -42.37463664903671
              ],
              [
                -63.613992998139565,
                -42.37464558955193
              ],
              [
                -63.61398094032859,
                -42.37465466015536
              ],
              [
                -63.61396870707307,
                -42.374645719638885
              ],
              [
                -63.61398076488414,
                -42.37463664903671
              ]
            ]
          ],
          [
            [
              [
                -63.61390789169436,
                -42.37463703927429
              ],
              [
                -63.613920124939625,
                -42.37464597979735
              ],
              [
                -63.613908067118,
                -42.37465505039319
              ],
              [
                -63.61389583387264,
                -42.37464610986887
              ],
              [
                -63.61390789169436,
                -42.37463703927429
              ]
            ]
          ],
          [
            [
              [
                -63.613446361458855,
                -42.37463950970343
              ],
              [
                -63.6134585946397,
                -42.374648450276155
              ],
              [
                -63.61344653675062,
                -42.37465752082388
              ],
              [
                -63.61343430356968,
                -42.3746485802499
              ],
              [
                -63.613446361458855,
                -42.37463950970343
              ]
            ]
          ],
          [
            [
              [
                -63.613834492295666,
                -42.374583396107795
              ],
              [
                -63.61383501850313,
                -42.374637429465565
              ],
              [
                -63.61382243447348,
                -42.374592466694736
              ],
              [
                -63.613834492295666,
                -42.374583396107795
              ]
            ]
          ],
          [
            [
              [
                -63.61376196992863,
                -42.37461980849107
              ],
              [
                -63.61377420315,
                -42.374628749029874
              ],
              [
                -63.61376214531046,
                -42.374637819610506
              ],
              [
                -63.61374991208902,
                -42.374628879070436
              ],
              [
                -63.61376196992863,
                -42.37461980849107
              ]
            ]
          ],
          [
            [
              [
                -63.613640514639,
                -42.37462045862932
              ],
              [
                -63.613652747843425,
                -42.3746293991812
              ],
              [
                -63.61364068998614,
                -42.37463846974918
              ],
              [
                -63.613628456781626,
                -42.37462952919603
              ],
              [
                -63.613640514639,
                -42.37462045862932
              ]
            ]
          ],
          [
            [
              [
                -63.61347047722678,
                -42.374621368606746
              ],
              [
                -63.613482710407474,
                -42.374630309176915
              ],
              [
                -63.61347065252533,
                -42.374639379727164
              ],
              [
                -63.61345841934455,
                -42.374630439155716
              ],
              [
                -63.61347047722678,
                -42.374621368606746
              ]
            ]
          ],
          [
            [
              [
                -63.61393165646703,
                -42.374582875843466
              ],
              [
                -63.61394388970503,
                -42.37459181636411
              ],
              [
                -63.61393183189711,
                -42.37460088696244
              ],
              [
                -63.61391959865904,
                -42.374591946440525
              ],
              [
                -63.61393165646703,
                -42.374582875843466
              ]
            ]
          ],
          [
            [
              [
                -63.61385860792963,
                -42.37456525493015
              ],
              [
                -63.61387084115391,
                -42.374574195458706
              ],
              [
                -63.61385878333875,
                -42.37458326604943
              ],
              [
                -63.61384655011439,
                -42.374574325519596
              ],
              [
                -63.61385860792963,
                -42.37456525493015
              ]
            ]
          ],
          [
            [
              [
                -63.613810025857184,
                -42.37456551504157
              ],
              [
                -63.61382225907469,
                -42.374574455575356
              ],
              [
                -63.61381020125242,
                -42.37458352616102
              ],
              [
                -63.613797968034845,
                -42.37457458562595
              ],
              [
                -63.613810025857184,
                -42.37456551504157
              ]
            ]
          ],
          [
            [
              [
                -63.61487847990171,
                -42.37452376560342
              ],
              [
                -63.61489071326125,
                -42.374532706022336
              ],
              [
                -63.61487865560198,
                -42.3745417767194
              ],
              [
                -63.61486642224235,
                -42.37453283629921
              ],
              [
                -63.61487847990171,
                -42.37452376560342
              ]
            ]
          ],
          [
            [
              [
                -63.61490259521001,
                -42.37450562420807
              ],
              [
                -63.6149148285694,
                -42.374514564624434
              ],
              [
                -63.61490277091706,
                -42.37452363532401
              ],
              [
                -63.61489053755759,
                -42.37451469490637
              ],
              [
                -63.61490259521001,
                -42.37450562420807
              ]
            ]
          ],
          [
            [
              [
                -63.614730098946126,
                -42.37425438041792
              ],
              [
                -63.614742332232076,
                -42.37426332085356
              ],
              [
                -63.61473027460234,
                -42.37427239153524
              ],
              [
                -63.614718041316316,
                -42.37426345109834
              ],
              [
                -63.614730098946126,
                -42.37425438041792
              ]
            ]
          ],
          [
            [
              [
                -63.61831137139895,
                -42.37283018145602
              ],
              [
                -63.6176148925503,
                -42.373644478276184
              ],
              [
                -63.61744432861424,
                -42.37359136080041
              ],
              [
                -63.61703262180739,
                -42.373719661745206
              ],
              [
                -63.61645906014397,
                -42.37344356024708
              ],
              [
                -63.61651881773198,
                -42.37334417258137
              ],
              [
                -63.61667785167269,
                -42.37346039567074
              ],
              [
                -63.61655446078936,
                -42.37326292662964
              ],
              [
                -63.61701051535623,
                -42.372702099231034
              ],
              [
                -63.61700892867941,
                -42.37253999919797
              ],
              [
                -63.6171766678894,
                -42.37230493951597
              ],
              [
                -63.61731017552088,
                -42.37229521471044
              ],
              [
                -63.61738216394849,
                -42.37220476675435
              ],
              [
                -63.61831013470857,
                -42.37270410368668
              ],
              [
                -63.61831137139895,
                -42.37283018145602
              ]
            ]
          ],
          [
            [
              [
                -63.616126381903385,
                -42.371716190413366
              ],
              [
                -63.616199427746636,
                -42.37173380990777
              ],
              [
                -63.61615401674192,
                -42.372058271156625
              ],
              [
                -63.61606873749492,
                -42.37203171133883
              ],
              [
                -63.615984514324516,
                -42.3721132181772
              ],
              [
                -63.61596110421714,
                -42.372203404278814
              ],
              [
                -63.61605844070434,
                -42.3722208933551
              ],
              [
                -63.61589016959579,
                -42.372401918072484
              ],
              [
                -63.61603802297752,
                -42.37261726848552
              ],
              [
                -63.6158190585774,
                -42.372582420699366
              ],
              [
                -63.615846692184164,
                -42.37292450147347
              ],
              [
                -63.615700949812855,
                -42.372925284248886
              ],
              [
                -63.61555854925552,
                -42.37326827808496
              ],
              [
                -63.61543727246307,
                -42.373286941227725
              ],
              [
                -63.61534204439582,
                -42.37348558505347
              ],
              [
                -63.615184243296916,
                -42.37349543792497
              ],
              [
                -63.614722018934145,
                -42.373425868958954
              ],
              [
                -63.61445359339789,
                -42.373301223450646
              ],
              [
                -63.614488010038386,
                -42.37309390027192
              ],
              [
                -63.61429298420761,
                -42.37302289714144
              ],
              [
                -63.61438856600891,
                -42.37286027640017
              ],
              [
                -63.61420542294339,
                -42.3727621913422
              ],
              [
                -63.61397457699366,
                -42.37275442178161
              ],
              [
                -63.61421695386236,
                -42.372699087343
              ],
              [
                -63.61415456099604,
                -42.37252830697493
              ],
              [
                -63.61521109881811,
                -42.37251363638954
              ],
              [
                -63.6152519443956,
                -42.37172088631276
              ],
              [
                -63.616126381903385,
                -42.371716190413366
              ]
            ]
          ],
          [
            [
              [
                -63.615425918516024,
                -42.37336805645382
              ],
              [
                -63.6154381517263,
                -42.373376996817065
              ],
              [
                -63.61542609436561,
                -42.37338606757159
              ],
              [
                -63.61541386115526,
                -42.373377127207064
              ],
              [
                -63.615425918516024,
                -42.37336805645382
              ]
            ]
          ],
          [
            [
              [
                -63.61593531641992,
                -42.37329327266527
              ],
              [
                -63.615947549687164,
                -42.37330221297392
              ],
              [
                -63.61593549241459,
                -42.37331128378155
              ],
              [
                -63.615923259147266,
                -42.37330234347164
              ],
              [
                -63.61593531641992,
                -42.37329327266527
              ]
            ]
          ],
          [
            [
              [
                -63.61433073637717,
                -42.37315778532986
              ],
              [
                -63.61434296939231,
                -42.373166725811565
              ],
              [
                -63.61433091191253,
                -42.37317579645198
              ],
              [
                -63.61431867889731,
                -42.37316685596902
              ],
              [
                -63.61433073637717,
                -42.37315778532986
              ]
            ]
          ],
          [
            [
              [
                -63.614402905627934,
                -42.37308535034635
              ],
              [
                -63.614415138639046,
                -42.37309429082048
              ],
              [
                -63.614403081183475,
                -42.37310336146847
              ],
              [
                -63.61439084817228,
                -42.37309442099304
              ],
              [
                -63.614402905627934,
                -42.37308535034635
              ]
            ]
          ],
          [
            [
              [
                -63.61430381297842,
                -42.37288774864461
              ],
              [
                -63.614316045936924,
                -42.37289668912997
              ],
              [
                -63.61430398850444,
                -42.37290575976768
              ],
              [
                -63.61429175554585,
                -42.37289681928105
              ],
              [
                -63.61430381297842,
                -42.37288774864461
              ]
            ]
          ],
          [
            [
              [
                -63.61406038272539,
                -42.37283501652572
              ],
              [
                -63.61407261563935,
                -42.37284395703742
              ],
              [
                -63.61406055818153,
                -42.372853027649775
              ],
              [
                -63.614048325267476,
                -42.3728440871368
              ],
              [
                -63.61406038272539,
                -42.37283501652572
              ]
            ]
          ],
          [
            [
              [
                -63.61588198392637,
                -42.372807233484764
              ],
              [
                -63.61589421709098,
                -42.37281617380051
              ],
              [
                -63.61588215990281,
                -42.37282524460275
              ],
              [
                -63.61586992673813,
                -42.37281630428575
              ],
              [
                -63.61588198392637,
                -42.372807233484764
              ]
            ]
          ],
          [
            [
              [
                -63.6168777118549,
                -42.372783868152126
              ],
              [
                -63.6168899451549,
                -42.37279280836078
              ],
              [
                -63.61687788811569,
                -42.372801879266824
              ],
              [
                -63.6168656548156,
                -42.372792939056914
              ],
              [
                -63.6168777118549,
                -42.372783868152126
              ]
            ]
          ],
          [
            [
              [
                -63.61413290287643,
                -42.372798603956745
              ],
              [
                -63.61414513579346,
                -42.37280754446075
              ],
              [
                -63.61413307835306,
                -42.372816615080666
              ],
              [
                -63.614120845435956,
                -42.3728076745754
              ],
              [
                -63.61413290287643,
                -42.372798603956745
              ]
            ]
          ],
          [
            [
              [
                -63.616002907638865,
                -42.37275254764138
              ],
              [
                -63.616088187837505,
                -42.372779107498694
              ],
              [
                -63.615990850478525,
                -42.37276161845499
              ],
              [
                -63.616002907638865,
                -42.37275254764138
              ]
            ]
          ],
          [
            [
              [
                -63.61588145599803,
                -42.37275320013045
              ],
              [
                -63.61589368915198,
                -42.3727621404464
              ],
              [
                -63.615881631973984,
                -42.3727712112486
              ],
              [
                -63.615869398819946,
                -42.37276227093139
              ],
              [
                -63.61588145599803,
                -42.37275320013045
              ]
            ]
          ],
          [
            [
              [
                -63.6169495251754,
                -42.372675409352844
              ],
              [
                -63.61696175846427,
                -42.372684349554056
              ],
              [
                -63.616949701456036,
                -42.37269342046762
              ],
              [
                -63.61693746816709,
                -42.37268448026514
              ],
              [
                -63.6169495251754,
                -42.372675409352844
              ]
            ]
          ],
          [
            [
              [
                -63.616852011493975,
                -42.372639909925404
              ],
              [
                -63.6168642447622,
                -42.37264885013722
              ],
              [
                -63.61685218774653,
                -42.372657921040634
              ],
              [
                -63.616839954478245,
                -42.37264898082754
              ],
              [
                -63.616852011493975,
                -42.372639909925404
              ]
            ]
          ],
          [
            [
              [
                -63.61609866064716,
                -42.372607936616035
              ],
              [
                -63.61611089380322,
                -42.37261687690903
              ],
              [
                -63.61609883668429,
                -42.37262594773393
              ],
              [
                -63.616086603528146,
                -42.37261700743967
              ],
              [
                -63.61609866064716,
                -42.372607936616035
              ]
            ]
          ],
          [
            [
              [
                -63.614106155963434,
                -42.37254657832657
              ],
              [
                -63.61411838882738,
                -42.372555518834154
              ],
              [
                -63.614106331430875,
                -42.37256458945138
              ],
              [
                -63.61409409856686,
                -42.37255564894252
              ],
              [
                -63.614106155963434,
                -42.37254657832657
              ]
            ]
          ],
          [
            [
              [
                -63.616995990240866,
                -42.37245901454052
              ],
              [
                -63.61700822349391,
                -42.37246795473734
              ],
              [
                -63.61699616653344,
                -42.372477025655826
              ],
              [
                -63.616983933280316,
                -42.372468085457726
              ],
              [
                -63.616995990240866,
                -42.37245901454052
              ]
            ]
          ],
          [
            [
              [
                -63.616145832787886,
                -42.37246358660071
              ],
              [
                -63.61620664636031,
                -42.372472265793014
              ],
              [
                -63.61613377570308,
                -42.3724726574293
              ],
              [
                -63.616145832787886,
                -42.37246358660071
              ]
            ]
          ],
          [
            [
              [
                -63.616024029677504,
                -42.372428217000234
              ],
              [
                -63.6160362627879,
                -42.37243715730175
              ],
              [
                -63.6160242056922,
                -42.37244622811894
              ],
              [
                -63.61601197258173,
                -42.37243728781615
              ],
              [
                -63.616024029677504,
                -42.372428217000234
              ]
            ]
          ],
          [
            [
              [
                -63.61623929606019,
                -42.372084830910396
              ],
              [
                -63.61625152913363,
                -42.37209377118972
              ],
              [
                -63.61623947213426,
                -42.37210284202946
              ],
              [
                -63.61622723906075,
                -42.37209390174886
              ],
              [
                -63.61623929606019,
                -42.372084830910396
              ]
            ]
          ],
          [
            [
              [
                -63.61623823961912,
                -42.37197676419484
              ],
              [
                -63.61625047267125,
                -42.37198570447458
              ],
              [
                -63.61623841569222,
                -42.371994775314256
              ],
              [
                -63.61622618264002,
                -42.371985835033236
              ],
              [
                -63.61623823961912,
                -42.37197676419484
              ]
            ]
          ]
        ]
      }
    }
  ]
}