{
  "type": "FeatureCollection",
  "features": [
    {
      "type": "Feature",
      "properties": {
        "name": "Caleta Small Island",
        "site": "caleta",
        "dataset_type": "lidar",
        "tile_count": 17,
        "point_count": 21692344,
        "source_crs_epsg": 32720,
        "tiles": [
          "cloud0.las",
          "cloud1.las",
          "cloud10.las",
          "cloud11.las",
          "cloud12.las",
          "cloud13.las",
          "cloud14.las",
          "cloud15.las",
          "cloud16.las",
          "cloud2.las",
          "cloud3.las",
          "cloud4.las",
          "cloud5.las",
          "cloud6.las",
          "cloud7.las",
          "cloud8.las",
          "cloud9.las"
        ],
        "geometry_type": "outline",
        "cell_res_m": 2.0,
        "simplify_tol_m": 5.0
      },
      "geometry": {
        "type": "MultiPolygon",
        "coordinates": [
          [
            [
              [
                -63.61445476137042,
                -42.375912965628
              ],
              [
                -63.61446699494235,
                -42.37592190608861
              ],
              [
                -63.614454936958154,
                -42.37593097674102
              ],
              [
                -63.61444270338615,
                -42.37592203627913
              ],
              [
                -63.61445476137042,
                -42.375912965628
              ]
            ]
          ],
          [
            [
              [
                -63.61399287092837,
                -42.375879416088985
              ],
              [
                -63.61401768885813,
                -42.375933319337534
              ],
              [
                -63.61398081288342,
                -42.37588848669199
              ],
              [
                -63.61399287092837,
                -42.375879416088985
              ]
            ]
          ],
          [
            [
              [
                -63.61372601471631,
                -42.375916869026724
              ],
              [
                -63.61373824818654,
                -42.37592580956576
              ],
              [
                -63.61372619009584,
                -42.375934880142204
              ],
              [
                -63.61371395662552,
                -42.375925939601885
              ],
              [
                -63.61372601471631,
                -42.375916869026724
              ]
            ]
          ],
          [
            [
              [
                -63.614527460419474,
                -42.37589456392053
              ],
              [
                -63.61453969399802,
                -42.375903504373376
              ],
              [
                -63.61452763602787,
                -42.37591257503339
              ],
              [
                -63.61451540244925,
                -42.37590363457927
              ],
              [
                -63.614527460419474,
                -42.37589456392053
              ]
            ]
          ],
          [
            [
              [
                -63.61477020018682,
                -42.3758752504927
              ],
              [
                -63.6147824337957,
                -42.37588419091947
              ],
              [
                -63.61477037586446,
                -42.37589326160478
              ],
              [
                -63.61475814225548,
                -42.37588432117674
              ],
              [
                -63.61477020018682,
                -42.3758752504927
              ]
            ]
          ],
          [
            [
              [
                -63.61396840393795,
                -42.375861535064125
              ],
              [
                -63.613980637431425,
                -42.37587047557723
              ],
              [
                -63.613968579386395,
                -42.37587954617895
              ],
              [
                -63.61395634589283,
                -42.37587060566459
              ],
              [
                -63.61396840393795,
                -42.375861535064125
              ]
            ]
          ],
          [
            [
              [
                -63.614381184445485,
                -42.37584131172264
              ],
              [
                -63.61439341799303,
                -42.37585025219137
              ],
              [
                -63.61438136001175,
                -42.375859322836135
              ],
              [
                -63.61436912646412,
                -42.375850382366124
              ],
              [
                -63.614381184445485,
                -42.37584131172264
              ]
            ]
          ],
          [
            [
              [
                -63.614631705900976,
                -42.37412882353049
              ],
              [
                -63.6146460467297,
                -42.37435389738909
              ],
              [
                -63.61473045025871,
                -42.374290402652505
              ],
              [
                -63.61489018615077,
                -42.37447867267427
              ],
              [
                -63.614672094085385,
                -42.37453387832892
              ],
              [
                -63.61502510470253,
                -42.374613039426656
              ],
              [
                -63.61494105248281,
                -42.374712556607975
              ],
              [
                -63.61500221954399,
                -42.374757258652814
              ],
              [
                -63.615268190998215,
                -42.374629747202576
              ],
              [
                -63.615415695868684,
                -42.37480907608773
              ],
              [
                -63.61552474209037,
                -42.37478147260509
              ],
              [
                -63.61538356743586,
                -42.375250543930264
              ],
              [
                -63.614997015590866,
                -42.37546876279734
              ],
              [
                -63.61504630136496,
                -42.37554054662787
              ],
              [
                -63.61496119357618,
                -42.37553199714222
              ],
              [
                -63.61484114212391,
                -42.375676737463905
              ],
              [
                -63.61450246646989,
                -42.375822649671555
              ],
              [
                -63.61440547597085,
                -42.37584118154535
              ],
              [
                -63.6142831406523,
                -42.37575177681036
              ],
              [
                -63.61421114376342,
                -42.37584222281959
              ],
              [
                -63.613992695472994,
                -42.37586140497425
              ],
              [
                -63.613894827623,
                -42.37578988084204
              ],
              [
                -63.613774071651854,
                -42.375862575597964
              ],
              [
                -63.61357781065476,
                -42.375665493521154
              ],
              [
                -63.61333594763303,
                -42.37577486000922
              ],
              [
                -63.613078171334685,
                -42.37549705189532
              ],
              [
                -63.61302783676636,
                -42.37531720048602
              ],
              [
                -63.613232648334716,
                -42.37514499062959
              ],
              [
                -63.613559440736616,
                -42.37502616383872
              ],
              [
                -63.61354562956875,
                -42.37485512320511
              ],
              [
                -63.613667260668855,
                -42.3748724842835
              ],
              [
                -63.613739257250835,
                -42.37478203860266
              ],
              [
                -63.61381248140501,
                -42.374817670708666
              ],
              [
                -63.61381177981671,
                -42.374745626233484
              ],
              [
                -63.613981992998674,
                -42.37476272686607
              ],
              [
                -63.61406604680688,
                -42.37466321037853
              ],
              [
                -63.61393077931899,
                -42.374492820247674
              ],
              [
                -63.61356799211608,
                -42.37465687089066
              ],
              [
                -63.61348253510553,
                -42.37461229805651
              ],
              [
                -63.61461964828069,
                -42.37413789420069
              ],
              [
                -63.614631705900976,
                -42.37412882353049
              ]
            ]
          ],
          [
            [
              [
                -63.61486683921731,
                -42.37582069608702
              ],
              [
                -63.6148790728291,
                -42.375829636503546
              ],
              [
                -63.61486701492222,
                -42.375838707198945
              ],
              [
                -63.61485478131034,
                -42.37582976678115
              ],
              [
                -63.61486683921731,
                -42.37582069608702
              ]
            ]
          ],
          [
            [
              [
                -63.61452675798751,
                -42.37582251946861
              ],
              [
                -63.614538991551846,
                -42.37583145992173
              ],
              [
                -63.61452693359526,
                -42.37584053058168
              ],
              [
                -63.61451470003084,
                -42.375831590127284
              ],
              [
                -63.61452675798751,
                -42.37582251946861
              ]
            ]
          ],
          [
            [
              [
                -63.61340934801058,
                -42.375828503477564
              ],
              [
                -63.61342158141898,
                -42.37583744405093
              ],
              [
                -63.613409523299076,
                -42.37584651459439
              ],
              [
                -63.613397289890585,
                -42.37583757401975
              ],
              [
                -63.61340934801058,
                -42.375828503477564
              ]
            ]
          ],
          [
            [
              [
                -63.613384705922954,
                -42.3757926112098
              ],
              [
                -63.61336094023499,
                -42.37584677452183
              ],
              [
                -63.613372647806194,
                -42.37580168174943
              ],
              [
                -63.613384705922954,
                -42.3757926112098
              ]
            ]
          ],
          [
            [
              [
                -63.6151324638516,
                -42.37565716272062
              ],
              [
                -63.61519433516318,
                -42.37577390909361
              ],
              [
                -63.615061171334446,
                -42.37581965370181
              ],
              [
                -63.615120406014206,
                -42.37566623344251
              ],
              [
                -63.6151324638516,
                -42.37565716272062
              ]
            ]
          ],
          [
            [
              [
                -63.61498812105227,
                -42.375802033523286
              ],
              [
                -63.615000354677456,
                -42.375810973926804
              ],
              [
                -63.61498829679172,
                -42.37582004463486
              ],
              [
                -63.614976063166445,
                -42.37581110423007
              ],
              [
                -63.61498812105227,
                -42.375802033523286
              ]
            ]
          ],
          [
            [
              [
                -63.61496330234805,
                -42.375748130488624
              ],
              [
                -63.6149755359592,
                -42.37575707089496
              ],
              [
                -63.61496347808009,
                -42.37576614160045
              ],
              [
                -63.614951244468855,
                -42.37575720119284
              ],
              [
                -63.61496330234805,
                -42.375748130488624
              ]
            ]
          ],
          [
            [
              [
                -63.61506011677518,
                -42.37571158703298
              ],
              [
                -63.61507235039279,
                -42.375720527429
              ],
              [
                -63.61506029253466,
                -42.375729598144595
              ],
              [
                -63.61504805891696,
                -42.37572065774729
              ],
              [
                -63.61506011677518,
                -42.37571158703298
              ]
            ]
          ],
          [
            [
              [
                -63.61505976525672,
                -42.375675564809576
              ],
              [
                -63.615071998867215,
                -42.37568450520574
              ],
              [
                -63.61505994101587,
                -42.375693575921304
              ],
              [
                -63.615047707405274,
                -42.37568463552387
              ],
              [
                -63.61505976525672,
                -42.375675564809576
              ]
            ]
          ],
          [
            [
              [
                -63.61316433013676,
                -42.375613669492
              ],
              [
                -63.613176563468656,
                -42.375622610092336
              ],
              [
                -63.61316450535391,
                -42.375631680610326
              ],
              [
                -63.613152272021935,
                -42.375622740008716
              ],
              [
                -63.61316433013676,
                -42.375613669492
              ]
            ]
          ],
          [
            [
              [
                -63.615083177887044,
                -42.37558537892982
              ],
              [
                -63.615095411483196,
                -42.37559431932372
              ],
              [
                -63.61508335365234,
                -42.37560339004175
              ],
              [
                -63.615071120056115,
                -42.37559444964659
              ],
              [
                -63.615083177887044,
                -42.37558537892982
              ]
            ]
          ],
          [
            [
              [
                -63.615058534947146,
                -42.37554948702586
              ],
              [
                -63.615070768532796,
                -42.37555842742251
              ],
              [
                -63.61505871070517,
                -42.37556749813799
              ],
              [
                -63.615046477119435,
                -42.37555855774008
              ],
              [
                -63.615058534947146,
                -42.37554948702586
              ]
            ]
          ],
          [
            [
              [
                -63.6152269925602,
                -42.3753864746706
              ],
              [
                -63.61523922613763,
                -42.37539541504956
              ],
              [
                -63.615227168365365,
                -42.37540448578266
              ],
              [
                -63.615214934787865,
                -42.3753955454024
              ],
              [
                -63.6152269925602,
                -42.3753864746706
              ]
            ]
          ],
          [
            [
              [
                -63.6133051716122,
                -42.37510857857862
              ],
              [
                -63.613317404865015,
                -42.375117519165215
              ],
              [
                -63.6133053468665,
                -42.37512658969806
              ],
              [
                -63.613293113613594,
                -42.375117649110194
              ],
              [
                -63.6133051716122,
                -42.37510857857862
              ]
            ]
          ],
          [
            [
              [
                -63.61323229786759,
                -42.37510896839028
              ],
              [
                -63.61324453111025,
                -42.37511790898472
              ],
              [
                -63.61323247310108,
                -42.37512697950996
              ],
              [
                -63.613220239858336,
                -42.375118038914266
              ],
              [
                -63.61323229786759,
                -42.37510896839028
              ]
            ]
          ],
          [
            [
              [
                -63.613280705116956,
                -42.37509069740141
              ],
              [
                -63.61329293836284,
                -42.37509963799069
              ],
              [
                -63.61328088036416,
                -42.37510870852098
              ],
              [
                -63.61326864711818,
                -42.375099767930436
              ],
              [
                -63.613280705116956,
                -42.37509069740141
              ]
            ]
          ],
          [
            [
              [
                -63.61344916614645,
                -42.37492768762366
              ],
              [
                -63.61351015705753,
                -42.37495437934903
              ],
              [
                -63.613437108203044,
                -42.374936758170314
              ],
              [
                -63.61344916614645,
                -42.37492768762366
              ]
            ]
          ],
          [
            [
              [
                -63.613302893320856,
                -42.37487443402065
              ],
              [
                -63.61330359433068,
                -42.37494647850106
              ],
              [
                -63.61329083536632,
                -42.37488350455206
              ],
              [
                -63.613302893320856,
                -42.37487443402065
              ]
            ]
          ],
          [
            [
              [
                -63.61337559152047,
                -42.37485603304586
              ],
              [
                -63.61338782473376,
                -42.37486497362558
              ],
              [
                -63.61337576679335,
                -42.374874044165864
              ],
              [
                -63.61336353357997,
                -42.37486510358486
              ],
              [
                -63.61337559152047,
                -42.37485603304586
              ]
            ]
          ],
          [
            [
              [
                -63.61352116310512,
                -42.374837242078236
              ],
              [
                -63.61353339633519,
                -42.374846182642344
              ],
              [
                -63.61352133841947,
                -42.3748552531978
              ],
              [
                -63.61350910518931,
                -42.374846312632414
              ],
              [
                -63.61352116310512,
                -42.374837242078236
              ]
            ]
          ],
          [
            [
              [
                -63.61502598341772,
                -42.37470309500207
              ],
              [
                -63.615038216833106,
                -42.3747120354046
              ],
              [
                -63.61502615916124,
                -42.37472110611697
              ],
              [
                -63.61501392574577,
                -42.374712165713156
              ],
              [
                -63.61502598341772,
                -42.37470309500207
              ]
            ]
          ],
          [
            [
              [
                -63.61366568246921,
                -42.37471038421023
              ],
              [
                -63.613677915694765,
                -42.37471932475915
              ],
              [
                -63.61366585782408,
                -42.374728395329704
              ],
              [
                -63.61365362459844,
                -42.37471945477953
              ],
              [
                -63.61366568246921,
                -42.37471038421023
              ]
            ]
          ],
          [
            [
              [
                -63.61354422700286,
                -42.3747110342476
              ],
              [
                -63.613556460211484,
                -42.37471997480958
              ],
              [
                -63.613544402323036,
                -42.37472904536748
              ],
              [
                -63.613532169114336,
                -42.37472010480423
              ],
              [
                -63.61354422700286,
                -42.3747110342476
              ]
            ]
          ],
          [
            [
              [
                -63.61383536930892,
                -42.37467345170378
              ],
              [
                -63.613847602551104,
                -42.37468239223454
              ],
              [
                -63.613835544712046,
                -42.3746914628228
              ],
              [
                -63.61382331146977,
                -42.374682522290776
              ],
              [
                -63.61383536930892,
                -42.37467345170378
              ]
            ]
          ],
          [
            [
              [
                -63.61398076488414,
                -42.37463664903671
              ],
              [
                -63.613992998139565,
                -42.37464558955193
              ],
              [
                -63.61398094032859,
                -42.37465466015536
              ],
              [
                -63.61396870707307,
                -42.374645719638885
              ],
              [
                -63.61398076488414,
                -42.37463664903671
              ]
            ]
          ],
          [
            [
              [
                -63.61390789169436,
                -42.37463703927429
              ],
              [
                -63.613920124939625,
                -42.37464597979735
              ],
              [
                -63.613908067118,
                -42.37465505039319
              ],
              [
                -63.61389583387264,
                -42.37464610986887
              ],
              [
                -63.61390789169436,
                -42.37463703927429
              ]
            ]
          ],
          [
            [
              [
                -63.613446361458855,
                -42.37463950970343
              ],
              [
                -63.6134585946397,
                -42.374648450276155
              ],
              [
                -63.61344653675062,
                -42.37465752082388
              ],
              [
                -63.61343430356968,
                -42.3746485802499
              ],
              [
                -63.613446361458855,
                -42.37463950970343
              ]
            ]
          ],
          [
            [
              [
                -63.613834492295666,
                -42.374583396107795
              ],
              [
                -63.61383501850313,
                -42.374637429465565
              ],
              [
                -63.61382243447348,
                -42.374592466694736
              ],
              [
                -63.613834492295666,
                -42.374583396107795
              ]
            ]
          ],
          [
            [
              [
                -63.61376196992863,
                -42.37461980849107
              ],
              [
                -63.61377420315,
                -42.374628749029874
              ],
              [
                -63.61376214531046,
                -42.374637819610506
              ],
              [
                -63.61374991208902,
                -42.374628879070436
              ],
              [
                -63.61376196992863,
                -42.37461980849107
              ]
            ]
          ],
          [
            [
              [
                -63.613640514639,
                -42.37462045862932
              ],
              [
                -63.613652747843425,
                -42.3746293991812
              ],
              [
                -63.61364068998614,
                -42.37463846974918
              ],
              [
                -63.613628456781626,
                -42.37462952919603
              ],
              [
                -63.613640514639,
                -42.37462045862932
              ]
            ]
          ],
          [
            [
              [
                -63.61347047722678,
                -42.374621368606746
              ],
              [
                -63.613482710407474,
                -42.374630309176915
              ],
              [
                -63.61347065252533,
                -42.374639379727164
              ],
              [
                -63.61345841934455,
                -42.374630439155716
              ],
              [
                -63.61347047722678,
                -42.374621368606746
              ]
            ]
          ],
          [
            [
              [
                -63.61393165646703,
                -42.374582875843466
              ],
              [
                -63.61394388970503,
                -42.37459181636411
              ],
              [
                -63.61393183189711,
                -42.37460088696244
              ],
              [
                -63.61391959865904,
                -42.374591946440525
              ],
              [
                -63.61393165646703,
                -42.374582875843466
              ]
            ]
          ],
          [
            [
              [
                -63.61385860792963,
                -42.37456525493015
              ],
              [
                -63.61387084115391,
                -42.374574195458706
              ],
              [
                -63.61385878333875,
                -42.37458326604943
              ],
              [
                -63.61384655011439,
                -42.374574325519596
              ],
              [
                -63.61385860792963,
                -42.37456525493015
              ]
            ]
          ],
          [
            [
              [
                -63.613810025857184,
                -42.37456551504157
              ],
              [
                -63.61382225907469,
                -42.374574455575356
              ],
              [
                -63.61381020125242,
                -42.37458352616102
              ],
              [
                -63.613797968034845,
                -42.37457458562595
              ],
              [
                -63.613810025857184,
                -42.37456551504157
              ]
            ]
          ],
          [
            [
              [
                -63.61487847990171,
                -42.37452376560342
              ],
              [
                -63.61489071326125,
                -42.374532706022336
              ],
              [
                -63.61487865560198,
                -42.3745417767194
              ],
              [
                -63.61486642224235,
                -42.37453283629921
              ],
              [
                -63.61487847990171,
                -42.37452376560342
              ]
            ]
          ],
          [
            [
              [
                -63.61490259521001,
                -42.37450562420807
              ],
              [
                -63.6149148285694,
                -42.374514564624434
              ],
              [
                -63.61490277091706,
                -42.37452363532401
              ],
              [
                -63.61489053755759,
                -42.37451469490637
              ],
              [
                -63.61490259521001,
                -42.37450562420807
              ]
            ]
          ],
          [
            [
              [
                -63.614730098946126,
                -42.37425438041792
              ],
              [
                -63.614742332232076,
                -42.37426332085356
              ],
              [
                -63.61473027460234,
                -42.37427239153524
              ],
              [
                -63.614718041316316,
                -42.37426345109834
              ],
              [
                -63.614730098946126,
                -42.37425438041792
              ]
            ]
          ],
          [
            [
              [
                -63.61831137139895,
                -42.37283018145602
              ],
              [
                -63.6176148925503,
                -42.373644478276184
              ],
              [
                -63.61744432861424,
                -42.37359136080041
              ],
              [
                -63.61703262180739,
                -42.373719661745206
              ],
              [
                -63.61645906014397,
                -42.37344356024708
              ],
              [
                -63.61651881773198,
                -42.37334417258137
              ],
              [
                -63.61667785167269,
                -42.37346039567074
              ],
              [
                -63.61655446078936,
                -42.37326292662964
              ],
              [
                -63.61701051535623,
                -42.372702099231034
              ],
              [
                -63.61700892867941,
                -42.37253999919797
              ],
              [
                -63.6171766678894,
                -42.37230493951597
              ],
              [
                -63.61731017552088,
                -42.37229521471044
              ],
              [
                -63.61738216394849,
                -42.37220476675435
              ],
              [
                -63.61831013470857,
                -42.37270410368668
              ],
              [
                -63.61831137139895,
                -42.37283018145602
              ]
            ]
          ],
          [
            [
              [
                -63.613971500960695,
                -42.36994455556967
              ],
              [
                -63.61619757614247,
                -42.370301860388025
              ],
              [
                -63.61630749465167,
                -42.37036431181492
              ],
              [
                -63.616309431573086,
                -42.370562434178545
              ],
              [
                -63.616431583462216,
                -42.370633825755746
              ],
              [
                -63.61633759510955,
                -42.37095854831036
              ],
              [
                -63.61653279293952,
                -42.37104755913611
              ],
              [
                -63.61653349754664,
                -42.37111960362109
              ],
              [
                -63.61646080458886,
                -42.371138006576416
              ],
              [
                -63.61646238977842,
                -42.371300106665984
              ],
              [
                -63.61639999227241,
                -42.37112932750878
              ],
              [
                -63.61631612290634,
                -42.37124685683577
              ],
              [
                -63.616365406818275,
                -42.37131864016363
              ],
              [
                -63.61622019636551,
                -42.371373456939004
              ],
              [
                -63.616293594006585,
                -42.37142709861914
              ],
              [
                -63.61620118835912,
                -42.371913921108195
              ],
              [
                -63.61615401674192,
                -42.372058271156625
              ],
              [
                -63.61606873749492,
                -42.37203171133883
              ],
              [
                -63.615984514324516,
                -42.3721132181772
              ],
              [
                -63.61596110421714,
                -42.372203404278814
              ],
              [
                -63.61605844070434,
                -42.3722208933551
              ],
              [
                -63.61589016959579,
                -42.372401918072484
              ],
              [
                -63.61603802297752,
                -42.37261726848552
              ],
              [
                -63.6158190585774,
                -42.372582420699366
              ],
              [
                -63.615846692184164,
                -42.37292450147347
              ],
              [
                -63.615700949812855,
                -42.372925284248886
              ],
              [
                -63.61555854925552,
                -42.37326827808496
              ],
              [
                -63.61543727246307,
                -42.373286941227725
              ],
              [
                -63.615329987000585,
                -42.37349465579793
              ],
              [
                -63.614575748552305,
                -42.37337261695044
              ],
              [
                -63.614441360340855,
                -42.37329228298124
              ],
              [
                -63.614488010038386,
                -42.37309390027192
              ],
              [
                -63.61429298420761,
                -42.37302289714144
              ],
              [
                -63.61438856600891,
                -42.37286027640017
              ],
              [
                -63.61420542294339,
                -42.3727621913422
              ],
              [
                -63.61397475242479,
                -42.37277243290621
              ],
              [
                -63.61408326939486,
                -42.372690797429904
              ],
              [
                -63.61421695386236,
                -42.372699087343
              ],
              [
                -63.614043237207646,
                -42.3723217645137
              ],
              [
                -63.61418687236484,
                -42.37210485034698
              ],
              [
                -63.61412570847274,
                -42.372060147826126
              ],
              [
                -63.61402960084949,
                -42.37216873498883
              ],
              [
                -63.614016140000324,
                -42.37203371658464
              ],
              [
                -63.61384540801909,
                -42.371962582564684
              ],
              [
                -63.6139166994336,
                -42.37180009223838
              ],
              [
                -63.61369633624066,
                -42.3716211513385
              ],
              [
                -63.61381690885585,
                -42.371530445533665
              ],
              [
                -63.61364617846572,
                -42.37145931120054
              ],
              [
                -63.61371817123717,
                -42.371368865504174
              ],
              [
                -63.61363254328208,
                -42.371306281598045
              ],
              [
                -63.61348715515733,
                -42.371343083796575
              ],
              [
                -63.613547441396506,
                -42.37129773101846
              ],
              [
                -63.613449931737335,
                -42.3712622286627
              ],
              [
                -63.61364354854472,
                -42.37118914424669
              ],
              [
                -63.61369054995647,
                -42.371026784045426
              ],
              [
                -63.61358098346287,
                -42.37100035237052
              ],
              [
                -63.61359409250926,
                -42.37109934859538
              ],
              [
                -63.61348557761571,
                -42.37118098361769
              ],
              [
                -63.613376010936975,
                -42.3711545517488
              ],
              [
                -63.61347159233649,
                -42.37099193172212
              ],
              [
                -63.61334979354658,
                -42.37095655924339
              ],
              [
                -63.613469664304446,
                -42.37079380926789
              ],
              [
                -63.613262940006166,
                -42.37076789711998
              ],
              [
                -63.61322554201688,
                -42.37066903076746
              ],
              [
                -63.613345938272225,
                -42.37056031431647
              ],
              [
                -63.613332304037094,
                -42.37040728464837
              ],
              [
                -63.61340587336235,
                -42.370478939343265
              ],
              [
                -63.61347804065194,
                -42.370406504921114
              ],
              [
                -63.61356331662337,
                -42.370433066694744
              ],
              [
                -63.613465633027474,
                -42.370379553204764
              ],
              [
                -63.613562089532195,
                -42.37030698875996
              ],
              [
                -63.61353604723115,
                -42.37012700740381
              ],
              [
                -63.613947211705515,
                -42.369944685640476
              ],
              [
                -63.613971500960695,
                -42.36994455556967
              ]
            ]
          ],
          [
            [
              [
                -63.615425918516024,
                -42.37336805645382
              ],
              [
                -63.6154381517263,
                -42.373376996817065
              ],
              [
                -63.61542609436561,
                -42.37338606757159
              ],
              [
                -63.61541386115526,
                -42.373377127207064
              ],
              [
                -63.615425918516024,
                -42.37336805645382
              ]
            ]
          ],
          [
            [
              [
                -63.61593531641992,
                -42.37329327266527
              ],
              [
                -63.615947549687164,
                -42.37330221297392
              ],
              [
                -63.61593549241459,
                -42.37331128378155
              ],
              [
                -63.615923259147266,
                -42.37330234347164
              ],
              [
                -63.61593531641992,
                -42.37329327266527
              ]
            ]
          ],
          [
            [
              [
                -63.61433073637717,
                -42.37315778532986
              ],
              [
                -63.61434296939231,
                -42.373166725811565
              ],
              [
                -63.61433091191253,
                -42.37317579645198
              ],
              [
                -63.61431867889731,
                -42.37316685596902
              ],
              [
                -63.61433073637717,
                -42.37315778532986
              ]
            ]
          ],
          [
            [
              [
                -63.614402905627934,
                -42.37308535034635
              ],
              [
                -63.614415138639046,
                -42.37309429082048
              ],
              [
                -63.614403081183475,
                -42.37310336146847
              ],
              [
                -63.61439084817228,
                -42.37309442099304
              ],
              [
                -63.614402905627934,
                -42.37308535034635
              ]
            ]
          ],
          [
            [
              [
                -63.61430381297842,
                -42.37288774864461
              ],
              [
                -63.614316045936924,
                -42.37289668912997
              ],
              [
                -63.61430398850444,
                -42.37290575976768
              ],
              [
                -63.61429175554585,
                -42.37289681928105
              ],
              [
                -63.61430381297842,
                -42.37288774864461
              ]
            ]
          ],
          [
            [
              [
                -63.61406038272539,
                -42.37283501652572
              ],
              [
                -63.61407261563935,
                -42.37284395703742
              ],
              [
                -63.61406055818153,
                -42.372853027649775
              ],
              [
                -63.614048325267476,
                -42.3728440871368
              ],
              [
                -63.61406038272539,
                -42.37283501652572
              ]
            ]
          ],
          [
            [
              [
                -63.61588198392637,
                -42.372807233484764
              ],
              [
                -63.61589421709098,
                -42.37281617380051
              ],
              [
                -63.61588215990281,
                -42.37282524460275
              ],
              [
                -63.61586992673813,
                -42.37281630428575
              ],
              [
                -63.61588198392637,
                -42.372807233484764
              ]
            ]
          ],
          [
            [
              [
                -63.6168777118549,
                -42.372783868152126
              ],
              [
                -63.6168899451549,
                -42.37279280836078
              ],
              [
                -63.61687788811569,
                -42.372801879266824
              ],
              [
                -63.6168656548156,
                -42.372792939056914
              ],
              [
                -63.6168777118549,
                -42.372783868152126
              ]
            ]
          ],
          [
            [
              [
                -63.61413290287643,
                -42.372798603956745
              ],
              [
                -63.61414513579346,
                -42.37280754446075
              ],
              [
                -63.61413307835306,
                -42.372816615080666
              ],
              [
                -63.614120845435956,
                -42.3728076745754
              ],
              [
                -63.61413290287643,
                -42.372798603956745
              ]
            ]
          ],
          [
            [
              [
                -63.616002907638865,
                -42.37275254764138
              ],
              [
                -63.616088187837505,
                -42.372779107498694
              ],
              [
                -63.615990850478525,
                -42.37276161845499
              ],
              [
                -63.616002907638865,
                -42.37275254764138
              ]
            ]
          ],
          [
            [
              [
                -63.61588145599803,
                -42.37275320013045
              ],
              [
                -63.61589368915198,
                -42.3727621404464
              ],
              [
                -63.615881631973984,
                -42.3727712112486
              ],
              [
                -63.615869398819946,
                -42.37276227093139
              ],
              [
                -63.61588145599803,
                -42.37275320013045
              ]
            ]
          ],
          [
            [
              [
                -63.6169495251754,
                -42.372675409352844
              ],
              [
                -63.61696175846427,
                -42.372684349554056
              ],
              [
                -63.616949701456036,
                -42.37269342046762
              ],
              [
                -63.61693746816709,
                -42.37268448026514
              ],
              [
                -63.6169495251754,
                -42.372675409352844
              ]
            ]
          ],
          [
            [
              [
                -63.616852011493975,
                -42.372639909925404
              ],
              [
                -63.6168642447622,
                -42.37264885013722
              ],
              [
                -63.61685218774653,
                -42.372657921040634
              ],
              [
                -63.616839954478245,
                -42.37264898082754
              ],
              [
                -63.616852011493975,
                -42.372639909925404
              ]
            ]
          ],
          [
            [
              [
                -63.61609866064716,
                -42.372607936616035
              ],
              [
                -63.61611089380322,
                -42.37261687690903
              ],
              [
                -63.61609883668429,
                -42.37262594773393
              ],
              [
                -63.616086603528146,
                -42.37261700743967
              ],
              [
                -63.61609866064716,
                -42.372607936616035
              ]
            ]
          ],
          [
            [
              [
                -63.614106155963434,
                -42.37254657832657
              ],
              [
                -63.61411838882738,
                -42.372555518834154
              ],
              [
                -63.614106331430875,
                -42.37256458945138
              ],
              [
                -63.61409409856686,
                -42.37255564894252
              ],
              [
                -63.614106155963434,
                -42.37254657832657
              ]
            ]
          ],
          [
            [
              [
                -63.616995990240866,
                -42.37245901454052
              ],
              [
                -63.61700822349391,
                -42.37246795473734
              ],
              [
                -63.61699616653344,
                -42.372477025655826
              ],
              [
                -63.616983933280316,
                -42.372468085457726
              ],
              [
                -63.616995990240866,
                -42.37245901454052
              ]
            ]
          ],
          [
            [
              [
                -63.616145832787886,
                -42.37246358660071
              ],
              [
                -63.61620664636031,
                -42.372472265793014
              ],
              [
                -63.61613377570308,
                -42.3724726574293
              ],
              [
                -63.616145832787886,
                -42.37246358660071
              ]
            ]
          ],
          [
            [
              [
                -63.616024029677504,
                -42.372428217000234
              ],
              [
                -63.6160362627879,
                -42.37243715730175
              ],
              [
                -63.6160242056922,
                -42.37244622811894
              ],
              [
                -63.61601197258173,
                -42.37243728781615
              ],
              [
                -63.616024029677504,
                -42.372428217000234
              ]
            ]
          ],
          [
            [
              [
                -63.61403117984457,
                -42.37233083512316
              ],
              [
                -63.61404341265573,
                -42.37233977563943
              ],
              [
                -63.614031355289264,
                -42.37234884624892
              ],
              [
                -63.61401912247801,
                -42.37233990573137
              ],
              [
                -63.61403117984457,
                -42.37233083512316
              ]
            ]
          ],
          [
            [
              [
                -63.61395830932107,
                -42.37233122537573
              ],
              [
                -63.61397054212207,
                -42.372340165899836
              ],
              [
                -63.61395848474494,
                -42.37234923650173
              ],
              [
                -63.613946251943865,
                -42.37234029597635
              ],
              [
                -63.61395830932107,
                -42.37233122537573
              ]
            ]
          ],
          [
            [
              [
                -63.6140053107376,
                -42.372168865077434
              ],
              [
                -63.61398189777405,
                -42.372259050792465
              ],
              [
                -63.61399325339801,
                -42.372177935683
              ],
              [
                -63.6140053107376,
                -42.372168865077434
              ]
            ]
          ],
          [
            [
              [
                -63.613908325697025,
                -42.372187396507066
              ],
              [
                -63.61392055846285,
                -42.37219633703695
              ],
              [
                -63.61390850110573,
                -42.372205407633665
              ],
              [
                -63.613896268339836,
                -42.37219646710251
              ],
              [
                -63.613908325697025,
                -42.372187396507066
              ]
            ]
          ],
          [
            [
              [
                -63.61407800561581,
                -42.37215046367003
              ],
              [
                -63.61409023839826,
                -42.372159404181765
              ],
              [
                -63.614078181072784,
                -42.3721684747962
              ],
              [
                -63.614065948290246,
                -42.372159534283185
              ],
              [
                -63.61407800561581,
                -42.37215046367003
              ]
            ]
          ],
          [
            [
              [
                -63.61385921927406,
                -42.37213362324714
              ],
              [
                -63.61387145202246,
                -42.372142563782454
              ],
              [
                -63.61385939466841,
                -42.372151634374084
              ],
              [
                -63.613847161919935,
                -42.37214269383748
              ],
              [
                -63.61385921927406,
                -42.37213362324714
              ]
            ]
          ],
          [
            [
              [
                -63.61390727324808,
                -42.37207932974615
              ],
              [
                -63.61396843700542,
                -42.37212403238426
              ],
              [
                -63.613895215911235,
                -42.372088400341525
              ],
              [
                -63.61390727324808,
                -42.37207932974615
              ]
            ]
          ],
          [
            [
              [
                -63.61623929606019,
                -42.372084830910396
              ],
              [
                -63.61625152913363,
                -42.37209377118972
              ],
              [
                -63.61623947213426,
                -42.37210284202946
              ],
              [
                -63.61622723906075,
                -42.37209390174886
              ],
              [
                -63.61623929606019,
                -42.372084830910396
              ]
            ]
          ],
          [
            [
              [
                -63.61381011293516,
                -42.37207984996513
              ],
              [
                -63.61382234566613,
                -42.372088790505885
              ],
              [
                -63.61381028831516,
                -42.37209786109241
              ],
              [
                -63.613798055584105,
                -42.37208892055039
              ],
              [
                -63.61381011293516,
                -42.37207984996513
              ]
            ]
          ],
          [
            [
              [
                -63.61393103708281,
                -42.37202516629755
              ],
              [
                -63.61394326982007,
                -42.37203410682545
              ],
              [
                -63.613931212497015,
                -42.37204317742461
              ],
              [
                -63.613918979759674,
                -42.37203423689544
              ],
              [
                -63.61393103708281,
                -42.37202516629755
              ]
            ]
          ],
          [
            [
              [
                -63.613760831314856,
                -42.37200806553337
              ],
              [
                -63.613773064024855,
                -42.37201700607963
              ],
              [
                -63.613761006680335,
                -42.37202607666105
              ],
              [
                -63.61374877397026,
                -42.37201713611351
              ],
              [
                -63.613760831314856,
                -42.37200806553337
              ]
            ]
          ],
          [
            [
              [
                -63.61623823961912,
                -42.37197676419484
              ],
              [
                -63.61625047267125,
                -42.37198570447458
              ],
              [
                -63.61623841569222,
                -42.371994775314256
              ],
              [
                -63.61622618264002,
                -42.371985835033236
              ],
              [
                -63.61623823961912,
                -42.37197676419484
              ]
            ]
          ],
          [
            [
              [
                -63.613759954489886,
                -42.37191800989411
              ],
              [
                -63.61376048058439,
                -42.371972043277836
              ],
              [
                -63.613747897162234,
                -42.371927080474194
              ],
              [
                -63.613759954489886,
                -42.37191800989411
              ]
            ]
          ],
          [
            [
              [
                -63.613687435127765,
                -42.3719544222276
              ],
              [
                -63.61369966781694,
                -42.371963362781926
              ],
              [
                -63.613687610471935,
                -42.37197243335571
              ],
              [
                -63.613675377782684,
                -42.37196349280012
              ],
              [
                -63.613687435127765,
                -42.3719544222276
              ]
            ]
          ],
          [
            [
              [
                -63.61380853452241,
                -42.37191774981696
              ],
              [
                -63.61382076722143,
                -42.37192669035834
              ],
              [
                -63.61380870990097,
                -42.371935760944766
              ],
              [
                -63.61379647720186,
                -42.371926820402116
              ],
              [
                -63.61380853452241,
                -42.37191774981696
              ]
            ]
          ],
          [
            [
              [
                -63.61366121639789,
                -42.37175642982943
              ],
              [
                -63.61367344904462,
                -42.37176537038712
              ],
              [
                -63.61366139173336,
                -42.37177444095825
              ],
              [
                -63.613649159086535,
                -42.371765500399285
              ],
              [
                -63.61366121639789,
                -42.37175642982943
              ]
            ]
          ],
          [
            [
              [
                -63.613709445608585,
                -42.37172014753746
              ],
              [
                -63.613721678255,
                -42.37172908809006
              ],
              [
                -63.6137096209576,
                -42.371738158666226
              ],
              [
                -63.61369738831111,
                -42.37172921811235
              ],
              [
                -63.613709445608585,
                -42.37172014753746
              ]
            ]
          ],
          [
            [
              [
                -63.61640386681987,
                -42.3715255721691
              ],
              [
                -63.6164050996468,
                -42.37165165000975
              ],
              [
                -63.616391809950336,
                -42.371534643024916
              ],
              [
                -63.61640386681987,
                -42.3715255721691
              ]
            ]
          ],
          [
            [
              [
                -63.61368427896005,
                -42.37163022191205
              ],
              [
                -63.613696511585324,
                -42.371639162467616
              ],
              [
                -63.613684454301335,
                -42.37164823304118
              ],
              [
                -63.61367222167598,
                -42.371639292484346
              ],
              [
                -63.61368427896005,
                -42.37163022191205
              ]
            ]
          ],
          [
            [
              [
                -63.613683752937156,
                -42.371576188524315
              ],
              [
                -63.61369598555178,
                -42.37158512908009
              ],
              [
                -63.61368392827796,
                -42.371594199653615
              ],
              [
                -63.61367169566325,
                -42.37158525909656
              ],
              [
                -63.613683752937156,
                -42.371576188524315
              ]
            ]
          ],
          [
            [
              [
                -63.61361035732224,
                -42.3715225451615
              ],
              [
                -63.61362258991606,
                -42.371531485725335
              ],
              [
                -63.61361053264176,
                -42.371540556291215
              ],
              [
                -63.613598300047855,
                -42.371531615726134
              ],
              [
                -63.61361035732224,
                -42.3715225451615
              ]
            ]
          ],
          [
            [
              [
                -63.61640316235089,
                -42.37145352768747
              ],
              [
                -63.616415395323784,
                -42.37146246795094
              ],
              [
                -63.61640333846789,
                -42.371471538807974
              ],
              [
                -63.61639110549492,
                -42.371462598543246
              ],
              [
                -63.61640316235089,
                -42.37145352768747
              ]
            ]
          ],
          [
            [
              [
                -63.61649926478602,
                -42.37134493855509
              ],
              [
                -63.616511497751176,
                -42.37135387880851
              ],
              [
                -63.61649944092982,
                -42.3713629496756
              ],
              [
                -63.61648720796459,
                -42.371354009420905
              ],
              [
                -63.61649926478602,
                -42.37134493855509
              ]
            ]
          ],
          [
            [
              [
                -63.613608604136026,
                -42.37134243386117
              ],
              [
                -63.61362083669434,
                -42.37135137442568
              ],
              [
                -63.61360877945392,
                -42.37136044499146
              ],
              [
                -63.613596546895536,
                -42.37135150442567
              ],
              [
                -63.613608604136026,
                -42.37134243386117
              ]
            ]
          ],
          [
            [
              [
                -63.61652320226809,
                -42.371308785699135
              ],
              [
                -63.61653543522953,
                -42.371317725950085
              ],
              [
                -63.61652337841849,
                -42.37132679681968
              ],
              [
                -63.616511145456975,
                -42.371317856567444
              ],
              [
                -63.61652320226809,
                -42.371308785699135
              ]
            ]
          ],
          [
            [
              [
                -63.61652161692168,
                -42.37114668561167
              ],
              [
                -63.61659554306191,
                -42.37125436046276
              ],
              [
                -63.61650956014107,
                -42.37115575647989
              ],
              [
                -63.61652161692168,
                -42.37114668561167
              ]
            ]
          ],
          [
            [
              [
                -63.613461638431744,
                -42.37121713585114
              ],
              [
                -63.613473870944865,
                -42.371226076431824
              ],
              [
                -63.613461813706884,
                -42.37123514698233
              ],
              [
                -63.61344958119367,
                -42.371226206400365
              ],
              [
                -63.613461638431744,
                -42.37121713585114
              ]
            ]
          ],
          [
            [
              [
                -63.613606675649734,
                -42.37114431142415
              ],
              [
                -63.613618908169,
                -42.37115325198944
              ],
              [
                -63.61360685096586,
                -42.37116232255509
              ],
              [
                -63.61359461844652,
                -42.371153381988535
              ],
              [
                -63.613606675649734,
                -42.37114431142415
              ]
            ]
          ],
          [
            [
              [
                -63.61333826205676,
                -42.371019663178046
              ],
              [
                -63.61339942437714,
                -42.37106436613721
              ],
              [
                -63.61332620483822,
                -42.37102873371448
              ],
              [
                -63.61333826205676,
                -42.371019663178046
              ]
            ]
          ],
          [
            [
              [
                -63.6165446735415,
                -42.37102047714406
              ],
              [
                -63.61655690644952,
                -42.37102941739351
              ],
              [
                -63.61654484969626,
                -42.37103848826544
              ],
              [
                -63.61653261678815,
                -42.371029548014704
              ],
              [
                -63.6165446735415,
                -42.37102047714406
              ]
            ]
          ],
          [
            [
              [
                -63.613331778338384,
                -42.370353251245504
              ],
              [
                -63.613344010664186,
                -42.37036219184259
              ],
              [
                -63.61333195357112,
                -42.37037126237985
              ],
              [
                -63.61331972124525,
                -42.3703623217815
              ],
              [
                -63.613331778338384,
                -42.370353251245504
              ]
            ]
          ],
          [
            [
              [
                -63.61340447133068,
                -42.37033485027161
              ],
              [
                -63.6134167036631,
                -42.37034379086092
              ],
              [
                -63.61340464658408,
                -42.370352861405756
              ],
              [
                -63.61339241425158,
                -42.37034392081518
              ],
              [
                -63.61340447133068,
                -42.37033485027161
              ]
            ]
          ],
          [
            [
              [
                -63.61342805969891,
                -42.370262675777944
              ],
              [
                -63.613428760738664,
                -42.37033472031482
              ],
              [
                -63.61341600263692,
                -42.37027174632399
              ],
              [
                -63.61342805969891,
                -42.370262675777944
              ]
            ]
          ],
          [
            [
              [
                -63.613452173812504,
                -42.37024453468205
              ],
              [
                -63.61346440613395,
                -42.37025347526649
              ],
              [
                -63.613452349078976,
                -42.37026254581633
              ],
              [
                -63.61344011675745,
                -42.37025360523062
              ],
              [
                -63.613452173812504,
                -42.37024453468205
              ]
            ]
          ],
          [
            [
              [
                -63.61342735866175,
                -42.370190631240135
              ],
              [
                -63.61343959096916,
                -42.3701995718274
              ],
              [
                -63.6134275339208,
                -42.370208642374685
              ],
              [
                -63.6134153016133,
                -42.37019970178616
              ],
              [
                -63.61342735866175,
                -42.370190631240135
              ]
            ]
          ],
          [
            [
              [
                -63.61345112221704,
                -42.37013646787515
              ],
              [
                -63.6134633545172,
                -42.370145408460004
              ],
              [
                -63.613451297482555,
                -42.370154479009784
              ],
              [
                -63.61343906518233,
                -42.370145538423664
              ],
              [
                -63.61345112221704,
                -42.37013646787515
              ]
            ]
          ]
        ]
      }
    }
  ]
}