{
  "type": "FeatureCollection",
  "features": [
    {
      "type": "Feature",
      "properties": {
        "name": "San Lorenzo Full LiDAR LAS",
        "site": "san_lorenzo",
        "dataset_type": "lidar",
        "tile_count": 1,
        "point_count": 674769456,
        "source_crs_epsg": 5345,
        "tiles": [
          "San Lorenzo Full LiDAR LAS.las"
        ],
        "geometry_type": "outline",
        "cell_res_m": 2.0,
        "simplify_tol_m": 5.0
      },
      "geometry": {
        "type": "MultiPolygon",
        "coordinates": [
          [
            [
              [
                -63.86330086640992,
                -42.08472717398498
              ],
              [
                -63.863603106448565,
                -42.08472380121682
              ],
              [
                -63.86361156153435,
                -42.08447189469173
              ],
              [
                -63.86414839617788,
                -42.08287948462723
              ],
              [
                -63.864221457430624,
                -42.082142657304196
              ],
              [
                -63.8644306908211,
                -42.08202952308682
              ],
              [
                -63.86654056874816,
                -42.082536902937
              ],
              [
                -63.868035120865734,
                -42.082654713113314
              ],
              [
                -63.86961605950565,
                -42.08308018613848
              ],
              [
                -63.871395673098334,
                -42.083347283061066
              ],
              [
                -63.87163300809609,
                -42.08347771902962
              ],
              [
                -63.872136647889846,
                -42.083595090221486
              ],
              [
                -63.87241532970737,
                -42.08357325258898
              ],
              [
                -63.872188566323786,
                -42.083488025796434
              ],
              [
                -63.87286068938741,
                -42.083626523581714
              ],
              [
                -63.87327132064082,
                -42.08363413751475
              ],
              [
                -63.87327432655272,
                -42.08354417031674
              ],
              [
                -63.87336854093853,
                -42.08361793537445
              ],
              [
                -63.87373326690556,
                -42.08355267824249
              ],
              [
                -63.874189202839524,
                -42.083651151585606
              ],
              [
                -63.87469645386813,
                -42.08366055095128
              ],
              [
                -63.875125834703795,
                -42.0838305469142
              ],
              [
                -63.87520707328618,
                -42.08393107698324
              ],
              [
                -63.87465355777301,
                -42.08530717568974
              ],
              [
                -63.87392021939774,
                -42.087724203946
              ],
              [
                -63.87334428691566,
                -42.089045866071096
              ],
              [
                -63.87322962018817,
                -42.08958387720123
              ],
              [
                -63.87334860153587,
                -42.08964009687755
              ],
              [
                -63.8731469261871,
                -42.08988842161384
              ],
              [
                -63.87310773492463,
                -42.09033780912732
              ],
              [
                -63.87259346544804,
                -42.09017523352815
              ],
              [
                -63.87256389449181,
                -42.09033672618501
              ],
              [
                -63.872012488129066,
                -42.09020046605644
              ],
              [
                -63.87202882361554,
                -42.0904348284617
              ],
              [
                -63.871477417662895,
                -42.0902985657691
              ],
              [
                -63.87130410352043,
                -42.090421381521736
              ],
              [
                -63.87084932845463,
                -42.090286909031185
              ],
              [
                -63.87085448399642,
                -42.090494057216326
              ],
              [
                -63.870767826152715,
                -42.09055546463513
              ],
              [
                -63.87021702430503,
                -42.090401202536924
              ],
              [
                -63.87011678178493,
                -42.090507368638164
              ],
              [
                -63.86959013933143,
                -42.090353552127425
              ],
              [
                -63.869605863529934,
                -42.09060590804391
              ],
              [
                -63.86903030446749,
                -42.09046918500462
              ],
              [
                -63.86889653542079,
                -42.0904937066515
              ],
              [
                -63.86888114262944,
                -42.090592445758446
              ],
              [
                -63.86833034541298,
                -42.09043817469596
              ],
              [
                -63.86834485916441,
                -42.090726517387246
              ],
              [
                -63.86776930199202,
                -42.09058978805832
              ],
              [
                -63.86777565325831,
                -42.09076094943797
              ],
              [
                -63.86330086640992,
                -42.08472717398498
              ]
            ]
          ],
          [
            [
              [
                -63.86765486625693,
                -42.09075870410831
              ],
              [
                -63.86680481843948,
                -42.09051784184332
              ],
              [
                -63.865849700611854,
                -42.09052708228311
              ],
              [
                -63.86602483536294,
                -42.09035029502337
              ],
              [
                -63.86608642357736,
                -42.08995534048508
              ],
              [
                -63.86559150551401,
                -42.08993713001374
              ],
              [
                -63.86553322513946,
                -42.08987302958115
              ],
              [
                -63.86556764150821,
                -42.08956759248536
              ],
              [
                -63.865455909681565,
                -42.08929544493813
              ],
              [
                -63.865635577112194,
                -42.0893437995927
              ],
              [
                -63.86570049501066,
                -42.08920997330786
              ],
              [
                -63.864975791843065,
                -42.089196486719864
              ],
              [
                -63.86522822380882,
                -42.088877102849516
              ],
              [
                -63.86539368327409,
                -42.088268026924695
              ],
              [
                -63.86486405317462,
                -42.088204155985274
              ],
              [
                -63.86499388937476,
                -42.08793650421467
              ],
              [
                -63.86490752604771,
                -42.08762881913314
              ],
              [
                -63.865076619238266,
                -42.087631966418805
              ],
              [
                -63.86510620758007,
                -42.08747047602731
              ],
              [
                -63.8643567646139,
                -42.087474529717014
              ],
              [
                -63.86463032992538,
                -42.08724556335617
              ],
              [
                -63.86470218537611,
                -42.086544722896605
              ],
              [
                -63.86422027801799,
                -42.08649974195354
              ],
              [
                -63.86425650953534,
                -42.08614032520889
              ],
              [
                -63.86417649350506,
                -42.08600380109864
              ],
              [
                -63.863705158608326,
                -42.08600402627956
              ],
              [
                -63.86383378696818,
                -42.0857723623786
              ],
              [
                -63.86386941620202,
                -42.085430939077696
              ],
              [
                -63.86336396670698,
                -42.085367511582234
              ],
              [
                -63.86344730446553,
                -42.08504498161718
              ],
              [
                -63.863299054335336,
                -42.08478115394234
              ],
              [
                -63.86765486625693,
                -42.09075870410831
              ]
            ]
          ],
          [
            [
              [
                -63.87084150229944,
                -42.09052082309841
              ],
              [
                -63.87085327997276,
                -42.09053004399542
              ],
              [
                -63.87084090028367,
                -42.09053881648776
              ],
              [
                -63.87082912261063,
                -42.0905295955895
              ],
              [
                -63.87084150229944,
                -42.09052082309841
              ]
            ]
          ],
          [
            [
              [
                -63.87493860277522,
                -42.0836470325934
              ],
              [
                -63.87502284428756,
                -42.083657595487665
              ],
              [
                -63.874926225009396,
                -42.083655805579916
              ],
              [
                -63.87493860277522,
                -42.0836470325934
              ]
            ]
          ],
          [
            [
              [
                -63.875494163672464,
                -42.08365732339121
              ],
              [
                -63.87548238653829,
                -42.08364810297419
              ],
              [
                -63.87549476422835,
                -42.08363932992585
              ],
              [
                -63.875494163672464,
                -42.08365732339121
              ]
            ]
          ],
          [
            [
              [
                -63.873201261102864,
                -42.083560820231284
              ],
              [
                -63.873213037881236,
                -42.083570040874804
              ],
              [
                -63.873200659900576,
                -42.0835788136701
              ],
              [
                -63.87318888312247,
                -42.0835695930253
              ],
              [
                -63.873201261102864,
                -42.083560820231284
              ]
            ]
          ],
          [
            [
              [
                -63.8735400288381,
                -42.08354909618148
              ],
              [
                -63.87355180566491,
                -42.0835583167913
              ],
              [
                -63.87353942773179,
                -42.0835670896243
              ],
              [
                -63.87352765090526,
                -42.08355786901324
              ],
              [
                -63.8735400288381,
                -42.08354909618148
              ]
            ]
          ],
          [
            [
              [
                -63.87161186164115,
                -42.08338730374504
              ],
              [
                -63.87162363815144,
                -42.08339652454608
              ],
              [
                -63.87161125999344,
                -42.08340529716582
              ],
              [
                -63.871599483483415,
                -42.083396076363556
              ],
              [
                -63.87161186164115,
                -42.08338730374504
              ]
            ]
          ],
          [
            [
              [
                -63.87149169000619,
                -42.08336706935013
              ],
              [
                -63.87150346649494,
                -42.083376290163045
              ],
              [
                -63.87149108832496,
                -42.08338506276957
              ],
              [
                -63.87147931183648,
                -42.08337584195541
              ],
              [
                -63.87149169000619,
                -42.08336706935013
              ]
            ]
          ]
        ]
      }
    }
  ]
}