{
  "type": "FeatureCollection",
  "features": [
    {
      "type": "Feature",
      "properties": {
        "name": "San Lorenzo Box Count 11.10 LAS",
        "site": "san_lorenzo",
        "dataset_type": "lidar",
        "tile_count": 1,
        "point_count": 36020653,
        "source_crs_epsg": 5345,
        "tiles": [
          "San Lorenzo Box Count 11.10 LAS.las"
        ],
        "geometry_type": "outline",
        "cell_res_m": 2.0,
        "simplify_tol_m": 5.0
      },
      "geometry": {
        "type": "MultiPolygon",
        "coordinates": [
          [
            [
              [
                -63.875241435393235,
                -42.08837109402791
              ],
              [
                -63.875059960428686,
                -42.08837673464909
              ],
              [
                -63.87502871922242,
                -42.089312393724946
              ],
              [
                -63.87494026443489,
                -42.08942778476083
              ],
              [
                -63.873973383433835,
                -42.08942787278106
              ],
              [
                -63.873859567276824,
                -42.089578802049566
              ],
              [
                -63.873862929223684,
                -42.089839930625956
              ],
              [
                -63.87297212212136,
                -42.08973339279971
              ],
              [
                -63.87213358883403,
                -42.08987087944041
              ],
              [
                -63.875241435393235,
                -42.08837109402791
              ]
            ]
          ],
          [
            [
              [
                -63.87194033179232,
                -42.089867294252066
              ],
              [
                -63.87210744340743,
                -42.08848404260651
              ],
              [
                -63.871829341630146,
                -42.08848788557323
              ],
              [
                -63.87194033179232,
                -42.089867294252066
              ]
            ]
          ],
          [
            [
              [
                -63.87182994332335,
                -42.08846989216586
              ],
              [
                -63.87211887398959,
                -42.08814216779389
              ],
              [
                -63.872086202920585,
                -42.08767344283724
              ],
              [
                -63.873136100439794,
                -42.087719921358776
              ],
              [
                -63.873248110956695,
                -42.087622973006184
              ],
              [
                -63.873250162683235,
                -42.08719990352841
              ],
              [
                -63.874213403617546,
                -42.08730778146969
              ],
              [
                -63.87508723213987,
                -42.08719794009645
              ],
              [
                -63.875032674584105,
                -42.0877460690311
              ],
              [
                -63.87524924479485,
                -42.08813717920431
              ],
              [
                -63.87182994332335,
                -42.08846989216586
              ]
            ]
          ],
          [
            [
              [
                -63.87524744263347,
                -42.088191159549176
              ],
              [
                -63.875162594360354,
                -42.088198590137424
              ],
              [
                -63.875243838295916,
                -42.088299120237174
              ],
              [
                -63.87524744263347,
                -42.088191159549176
              ]
            ]
          ]
        ]
      }
    }
  ]
}