{
  "type": "FeatureCollection",
  "features": [
    {
      "type": "Feature",
      "properties": {
        "name": "San_Lorenzo_UTM",
        "site": "san_lorenzo",
        "dataset_type": "lidar",
        "tile_count": 2,
        "point_count": 46073107,
        "source_crs_epsg": 32720,
        "tiles": [
          "box_count_11.10.las",
          "box_count_11.9.las"
        ],
        "geometry_type": "outline",
        "cell_res_m": 2.0,
        "simplify_tol_m": 5.0
      },
      "geometry": {
        "type": "MultiPolygon",
        "coordinates": [
          [
            [
              [
                -63.875245268262645,
                -42.08837489214472
              ],
              [
                -63.87506404118696,
                -42.0883852807022
              ],
              [
                -63.87502830561108,
                -42.08930420796469
              ],
              [
                -63.8749211023752,
                -42.08942210882955
              ],
              [
                -63.87397806222014,
                -42.0894292952044
              ],
              [
                -63.87384741789802,
                -42.08960141211001
              ],
              [
                -63.87386259846013,
                -42.089826456959614
              ],
              [
                -63.872821594680325,
                -42.08974431563944
              ],
              [
                -63.8721582305791,
                -42.089866442876044
              ],
              [
                -63.875245268262645,
                -42.08837489214472
              ]
            ]
          ],
          [
            [
              [
                -63.87194060427938,
                -42.08986809673265
              ],
              [
                -63.872115298728076,
                -42.088497793423215
              ],
              [
                -63.87182513655848,
                -42.088499998307334
              ],
              [
                -63.87211036443084,
                -42.08813757409524
              ],
              [
                -63.87211616326677,
                -42.08767820253501
              ],
              [
                -63.873156391399846,
                -42.087706317719444
              ],
              [
                -63.87323966229664,
                -42.08760661343517
              ],
              [
                -63.87324619407592,
                -42.08720127474613
              ],
              [
                -63.87404560689939,
                -42.08730326558286
              ],
              [
                -63.87510802875148,
                -42.087187091289195
              ],
              [
                -63.875056367237555,
                -42.08782694116204
              ],
              [
                -63.875241801864725,
                -42.08812273882263
              ],
              [
                -63.87194060427938,
                -42.08986809673265
              ]
            ]
          ],
          [
            [
              [
                -63.87524254466055,
                -42.08817677167832
              ],
              [
                -63.87515828589114,
                -42.088204433575804
              ],
              [
                -63.87524427785872,
                -42.08830284833956
              ],
              [
                -63.87524254466055,
                -42.08817677167832
              ]
            ]
          ],
          [
            [
              [
                -63.866651571319665,
                -42.08417107184159
              ],
              [
                -63.8674997841836,
                -42.084308765572914
              ],
              [
                -63.86774647927868,
                -42.084667157467976
              ],
              [
                -63.868034905590044,
                -42.08453888607431
              ],
              [
                -63.86813309373875,
                -42.084646220427445
              ],
              [
                -63.868362914593405,
                -42.08465348797116
              ],
              [
                -63.86827430438167,
                -42.08524858264533
              ],
              [
                -63.86847117536157,
                -42.08549927278406
              ],
              [
                -63.868253809373634,
                -42.085518930504655
              ],
              [
                -63.86825651097813,
                -42.085717051431594
              ],
              [
                -63.86855280290377,
                -42.08616513046095
              ],
              [
                -63.86820134322641,
                -42.08610474512908
              ],
              [
                -63.868130033184976,
                -42.086195348881105
              ],
              [
                -63.86796004129917,
                -42.0861425962392
              ],
              [
                -63.86788020095083,
                -42.08649445067552
              ],
              [
                -63.86772463002598,
                -42.086612710687106
              ],
              [
                -63.86665729997966,
                -42.0863685967054
              ],
              [
                -63.86667853746066,
                -42.086152282103235
              ],
              [
                -63.866221090511246,
                -42.086299838919096
              ],
              [
                -63.86607503425376,
                -42.08622888994837
              ],
              [
                -63.86570184594406,
                -42.08634878945802
              ],
              [
                -63.86567374852572,
                -42.08606079580667
              ],
              [
                -63.86595875602448,
                -42.08568037550465
              ],
              [
                -63.86571696452269,
                -42.085682199888616
              ],
              [
                -63.86588229971046,
                -42.08539274679467
              ],
              [
                -63.865754302699116,
                -42.084871339767815
              ],
              [
                -63.865947243555084,
                -42.08483385824758
              ],
              [
                -63.866086926969245,
                -42.08443652125586
              ],
              [
                -63.86663960459939,
                -42.08418016864603
              ],
              [
                -63.866651571319665,
                -42.08417107184159
              ]
            ]
          ],
          [
            [
              [
                -63.86789241342643,
                -42.08650336473526
              ],
              [
                -63.867904625905446,
                -42.08651227879368
              ],
              [
                -63.86789265893196,
                -42.08652137572755
              ],
              [
                -63.86788044645283,
                -42.08651246166788
              ],
              [
                -63.86789241342643,
                -42.08650336473526
              ]
            ]
          ],
          [
            [
              [
                -63.867915610828256,
                -42.08643113788936
              ],
              [
                -63.867927823296455,
                -42.086440051945516
              ],
              [
                -63.86791585633974,
                -42.086449148881755
              ],
              [
                -63.86790364387143,
                -42.08644023482436
              ],
              [
                -63.867915610828256,
                -42.08643113788936
              ]
            ]
          ],
          [
            [
              [
                -63.86605078143846,
                -42.08444580048371
              ],
              [
                -63.86606299326345,
                -42.08445471474733
              ],
              [
                -63.86605102640543,
                -42.08446381149123
              ],
              [
                -63.86603881458032,
                -42.08445489722634
              ],
              [
                -63.86605078143846,
                -42.08444580048371
              ]
            ]
          ]
        ]
      }
    }
  ]
}