{
  "type": "FeatureCollection",
  "features": [
    {
      "type": "Feature",
      "properties": {
        "name": "San Lorenzo Box Count 11.9.25 LAS",
        "site": "san_lorenzo",
        "dataset_type": "lidar",
        "tile_count": 1,
        "point_count": 10052454,
        "source_crs_epsg": 5345,
        "tiles": [
          "San Lorenzo Box Count 11.9.25 LAS.las"
        ],
        "geometry_type": "outline",
        "cell_res_m": 2.0,
        "simplify_tol_m": 5.0
      },
      "geometry": {
        "type": "MultiPolygon",
        "coordinates": [
          [
            [
              [
                -63.86854005035014,
                -42.08617426901727
              ],
              [
                -63.86815597037299,
                -42.08609511323371
              ],
              [
                -63.86808048994876,
                -42.08618373326592
              ],
              [
                -63.86796091708183,
                -42.08614550171517
              ],
              [
                -63.8678724543393,
                -42.086260887166546
              ],
              [
                -63.867888171371646,
                -42.086513243308005
              ],
              [
                -63.86774022259134,
                -42.08660051608618
              ],
              [
                -63.86854005035014,
                -42.08617426901727
              ]
            ]
          ],
          [
            [
              [
                -63.867667755125915,
                -42.086599168988585
              ],
              [
                -63.86667222478693,
                -42.08637360588485
              ],
              [
                -63.86668006512102,
                -42.086139692282806
              ],
              [
                -63.86623983483182,
                -42.08629354520742
              ],
              [
                -63.866048399230074,
                -42.08623597030028
              ],
              [
                -63.86575430783407,
                -42.086356530801545
              ],
              [
                -63.86567308152316,
                -42.08625599434613
              ],
              [
                -63.86562839059363,
                -42.0861471353706
              ],
              [
                -63.86595809948222,
                -42.08568515098276
              ],
              [
                -63.86571594167442,
                -42.08569865015173
              ],
              [
                -63.86589528609449,
                -42.08539590923071
              ],
              [
                -63.86576785088639,
                -42.08487140566507
              ],
              [
                -63.86596290181334,
                -42.08482102085391
              ],
              [
                -63.866047432132184,
                -42.08446250194938
              ],
              [
                -63.86663740418982,
                -42.08416739808134
              ],
              [
                -63.867667755125915,
                -42.086599168988585
              ]
            ]
          ],
          [
            [
              [
                -63.86812940397995,
                -42.0861666377839
              ],
              [
                -63.868141180468704,
                -42.08617585893862
              ],
              [
                -63.86812880128961,
                -42.086184631155184
              ],
              [
                -63.86811702480113,
                -42.08617540999921
              ],
              [
                -63.86812940397995,
                -42.0861666377839
              ]
            ]
          ],
          [
            [
              [
                -63.86666155907239,
                -42.08416784731491
              ],
              [
                -63.8674191224838,
                -42.08428095910209
              ],
              [
                -63.86774463367786,
                -42.084665106436184
              ],
              [
                -63.86803931624451,
                -42.0845265471572
              ],
              [
                -63.8681317178224,
                -42.08465429652734
              ],
              [
                -63.86836149250336,
                -42.084649564403584
              ],
              [
                -63.86826974333419,
                -42.08522400581079
              ],
              [
                -63.86847810253616,
                -42.08549794638936
              ],
              [
                -63.86829663561747,
                -42.085503576483255
              ],
              [
                -63.868255280043506,
                -42.08565584681467
              ],
              [
                -63.86854185807022,
                -42.08612028888869
              ],
              [
                -63.86666155907239,
                -42.08416784731491
              ]
            ]
          ],
          [
            [
              [
                -63.86633094452871,
                -42.084296732405726
              ],
              [
                -63.86634272041431,
                -42.08430595373407
              ],
              [
                -63.86633034136969,
                -42.084314725761814
              ],
              [
                -63.86631856548437,
                -42.08430550443219
              ],
              [
                -63.86633094452871,
                -42.084296732405726
              ]
            ]
          ]
        ]
      }
    }
  ]
}