{
  "type": "FeatureCollection",
  "features": [
    {
      "type": "Feature",
      "properties": {
        "aoi_id": "san_lorenzo_plains",
        "name": "The Plains",
        "source": "GPS Ground Truthing Notes 2025 - RD.pdf",
        "penguin_count": 453
      },
      "geometry": {
        "type": "Polygon",
        "coordinates": [
          [
            [
              -63.87103500000007,
              -42.0850760000002
            ],
            [
              -63.87088600000006,
              -42.08534800000022
            ],
            [
              -63.86981100000008,
              -42.08514000000019
            ],
            [
              -63.86939500000006,
              -42.0850490000002
            ],
            [
              -63.86828900000006,
              -42.08477600000021
            ],
            [
              -63.86802300000008,
              -42.08470400000019
            ],
            [
              -63.86763300000006,
              -42.08459700000018
            ],
            [
              -63.86749600000007,
              -42.084520000000204
            ],
            [
              -63.867582000000056,
              -42.0843710000002
            ],
            [
              -63.867691000000065,
              -42.08436000000018
            ],
            [
              -63.868053000000074,
              -42.0844180000002
            ],
            [
              -63.87103500000007,
              -42.0850760000002
            ]
          ]
        ]
      }
    }
  ]
}